{
"type": "FeatureCollection",
"name": "Escuelas - Digitalización",
"features": [
{ "type": "Feature", "properties": { "id": 19, "nom": "Casa del Niño", "dir": "Magallenes 3897", "res": null, "num": "2914273897", "adm": "Araceli Uthurralt", "mat": 57, "cue": 62178500, "con": null, "cap": null }, "geometry": { "type": "Polygon", "coordinates": [ [ [ -62.2725383, -38.7815547 ], [ -62.272385, -38.781421 ], [ -62.2725732, -38.7812737 ], [ -62.2727312, -38.7814134 ], [ -62.2725383, -38.7815547 ] ] ] } },
{ "type": "Feature", "properties": { "id": 16, "nom": "Jardín 953", "dir": "Isabel la Católica 3310", "res": null, "num": "2915021959", "adm": "Mónica Campione", "mat": 92, "cue": 61339200, "con": null, "cap": null }, "geometry": { "type": "Polygon", "coordinates": [ [ [ -62.2738146, -38.7687563 ], [ -62.273337, -38.7691254 ], [ -62.2730995, -38.7689422 ], [ -62.2731036, -38.7688797 ], [ -62.2735432, -38.76855 ], [ -62.2738146, -38.7687563 ] ] ] } },
{ "type": "Feature", "properties": { "id": 14, "nom": "Escuela N58", "dir": "Brihuega 2466", "res": null, "num": "2914166807", "adm": "Andrea Ferronato", "mat": 142, "cue": 61189100, "con": null, "cap": null }, "geometry": { "type": "Polygon", "coordinates": [ [ [ -62.2750762, -38.7689238 ], [ -62.2749669, -38.7688359 ], [ -62.2749069, -38.7688809 ], [ -62.2746641, -38.7686907 ], [ -62.274678, -38.7686799 ], [ -62.2745933, -38.7686156 ], [ -62.2748173, -38.7684495 ], [ -62.2752107, -38.7687678 ], [ -62.2752097, -38.7688246 ], [ -62.2750762, -38.7689238 ] ] ] } },
{ "type": "Feature", "properties": { "id": 17, "nom": "CFP 401", "dir": "Santiago Dasso", "res": null, "num": "2915043585", "adm": "Maria Emilia Méndez", "mat": 484, "cue": 61501600, "con": null, "cap": null }, "geometry": { "type": "Polygon", "coordinates": [ [ [ -62.2709799, -38.7738382 ], [ -62.2705689, -38.7741402 ], [ -62.2704383, -38.7740378 ], [ -62.2704181, -38.7740538 ], [ -62.2702634, -38.7739347 ], [ -62.2702729, -38.7739267 ], [ -62.270238, -38.7738998 ], [ -62.270234, -38.7737727 ], [ -62.270312, -38.7737164 ], [ -62.2704318, -38.773817 ], [ -62.2703852, -38.7738524 ], [ -62.2704753, -38.773922 ], [ -62.2704839, -38.7739185 ], [ -62.2705311, -38.7739601 ], [ -62.2706304, -38.7738825 ], [ -62.2706638, -38.7739183 ], [ -62.2708739, -38.7737591 ], [ -62.2709799, -38.7738382 ] ] ] } },
{ "type": "Feature", "properties": { "id": 10, "nom": "Escuela N59", "dir": "Gral. Nicolás Levalle 1435", "res": null, "num": "2914702704", "adm": "Maria Adela Schiebelbeien", "mat": 241, "cue": 60543500, "con": null, "cap": null }, "geometry": { "type": "Polygon", "coordinates": [ [ [ -62.2742806, -38.7501953 ], [ -62.2740032, -38.7504043 ], [ -62.2737554, -38.750208 ], [ -62.2740782, -38.7499626 ], [ -62.2741436, -38.7500194 ], [ -62.2740943, -38.7500602 ], [ -62.2742806, -38.7501953 ] ] ] } },
{ "type": "Feature", "properties": { "id": 11, "nom": "EET N1", "dir": "Cabral y Tarija 3501", "res": null, "num": "2914631345", "adm": "Juan Troncoso", "mat": 1201, "cue": 61123900, "con": null, "cap": null }, "geometry": { "type": "Polygon", "coordinates": [ [ [ -62.2698897, -38.7754008 ], [ -62.2696209, -38.7753938 ], [ -62.2696209, -38.7756021 ], [ -62.2698846, -38.775603 ], [ -62.2698668, -38.7760828 ], [ -62.2698016, -38.7760759 ], [ -62.2696489, -38.7759558 ], [ -62.2696592, -38.775822 ], [ -62.2696275, -38.7758113 ], [ -62.2695271, -38.775882 ], [ -62.2691377, -38.7755698 ], [ -62.2691797, -38.7755336 ], [ -62.2691566, -38.7755149 ], [ -62.269178, -38.7754978 ], [ -62.2691336, -38.7754617 ], [ -62.2691632, -38.7754377 ], [ -62.2691538, -38.7754293 ], [ -62.269852, -38.7749014 ], [ -62.2699056, -38.7749014 ], [ -62.2698897, -38.7754008 ] ] ] } },
{ "type": "Feature", "properties": { "id": 12, "nom": "Escuela N13", "dir": "Brihuega y Avenente 3480", "res": null, "num": "2914257334", "adm": "Silvina Zapata", "mat": 295, "cue": 61125100, "con": null, "cap": null }, "geometry": { "type": "Polygon", "coordinates": [ [ [ -62.2631549, -38.778039 ], [ -62.2627523, -38.7777223 ], [ -62.2631788, -38.7773986 ], [ -62.2635744, -38.7777111 ], [ -62.2631549, -38.778039 ] ] ] } },
{ "type": "Feature", "properties": { "id": 8, "nom": "Jardín 932", "dir": "Juan B. Justo y Daniel De Soli", "res": null, "num": "2914126486", "adm": "Graciela Pettinari", "mat": 88, "cue": 60484500, "con": null, "cap": null }, "geometry": { "type": "Polygon", "coordinates": [ [ [ -62.2565422, -38.7805389 ], [ -62.2563226, -38.7803594 ], [ -62.2565654, -38.78018 ], [ -62.2566667, -38.7801821 ], [ -62.2567786, -38.78037 ], [ -62.2565422, -38.7805389 ] ] ] } },
{ "type": "Feature", "properties": { "id": 13, "nom": "Escuela N21", "dir": "Brihuega Esq. Canning 3900", "res": null, "num": "2914130459", "adm": "Karina Botta", "mat": 130, "cue": 61125300, "con": null, "cap": null }, "geometry": { "type": "Polygon", "coordinates": [ [ [ -62.2576939, -38.7823378 ], [ -62.2575018, -38.7824834 ], [ -62.257525, -38.7825109 ], [ -62.2572164, -38.7827595 ], [ -62.256918, -38.7825193 ], [ -62.2570861, -38.7823924 ], [ -62.257177, -38.782461 ], [ -62.2575144, -38.7821879 ], [ -62.2576939, -38.7823378 ] ] ] } },
{ "type": "Feature", "properties": { "id": 4, "nom": "Escuela N703", "dir": "Siches 4048", "res": null, "num": "2914293298", "adm": "Mirta Lacaruso", "mat": 58, "cue": 60248601, "con": null, "cap": null }, "geometry": { "type": "Polygon", "coordinates": [ [ [ -62.2677826, -38.7858692 ], [ -62.2672949, -38.7860656 ], [ -62.2671745, -38.7858777 ], [ -62.2676074, -38.7856834 ], [ -62.2676538, -38.7857594 ], [ -62.2677003, -38.7857341 ], [ -62.2677826, -38.7858692 ] ] ] } },
{ "type": "Feature", "properties": { "id": 21, "nom": "Jardín Sarmiento", "dir": "Sisco 3550", "res": null, "num": "2914704300", "adm": "Nicolás Sampini", "mat": 94, "cue": 62413700, "con": null, "cap": null }, "geometry": { "type": "Polygon", "coordinates": [ [ [ -62.2658013, -38.7813087 ], [ -62.265672, -38.7812003 ], [ -62.265773, -38.7811277 ], [ -62.2659035, -38.7812373 ], [ -62.2658826, -38.7812521 ], [ -62.2658013, -38.7813087 ] ] ] } },
{ "type": "Feature", "properties": { "id": 18, "nom": "Colegio Secundario Sarmiento", "dir": "José Sisco 3547", "res": null, "num": "2916481047", "adm": "Facundo Retondo", "mat": 288, "cue": 61912400, "con": null, "cap": null }, "geometry": { "type": "Polygon", "coordinates": [ [ [ -62.2653788, -38.782044 ], [ -62.2652544, -38.7819528 ], [ -62.2653517, -38.7818716 ], [ -62.2654084, -38.7818765 ], [ -62.2654946, -38.7819504 ], [ -62.2653788, -38.782044 ] ] ] } },
{ "type": "Feature", "properties": { "id": 15, "nom": "Jardín 922", "dir": "Rio Negro 2251", "res": null, "num": "2914189392", "adm": "Sandra Vega", "mat": 118, "cue": 61198700, "con": null, "cap": null }, "geometry": { "type": "Polygon", "coordinates": [ [ [ -62.2751955, -38.7497872 ], [ -62.2749482, -38.749978 ], [ -62.2748339, -38.7498916 ], [ -62.2750905, -38.7497013 ], [ -62.2751955, -38.7497872 ] ] ] } },
{ "type": "Feature", "properties": { "id": 9, "nom": "Jardín 926", "dir": "Félix Frías 870", "res": null, "num": "2916497977", "adm": "Valeria Murgoitía", "mat": 57, "cue": 60484900, "con": null, "cap": null }, "geometry": { "type": "Polygon", "coordinates": [ [ [ -62.2858429, -38.7482583 ], [ -62.2857269, -38.7481695 ], [ -62.285868, -38.7480582 ], [ -62.2859813, -38.7481546 ], [ -62.2858429, -38.7482583 ] ] ] } },
{ "type": "Feature", "properties": { "id": 6, "nom": "Jardín 905", "dir": "Magallanes 3850", "res": null, "num": "2914255608", "adm": "Marisa Polatti", "mat": 95, "cue": 60477700, "con": null, "cap": null }, "geometry": { "type": "Polygon", "coordinates": [ [ [ -62.2719849, -38.7811255 ], [ -62.2717296, -38.7809197 ], [ -62.2718771, -38.7808048 ], [ -62.2718939, -38.780819 ], [ -62.2719089, -38.7808137 ], [ -62.2720935, -38.7809576 ], [ -62.2720635, -38.780985 ], [ -62.272113, -38.7810248 ], [ -62.2719849, -38.7811255 ] ] ] } },
{ "type": "Feature", "properties": { "id": 1, "nom": "Colegio Sarmiento Primaria", "dir": "José Sisco 3547", "res": null, "num": "2914709668", "adm": "Claudia Trufero", "mat": 351, "cue": 61188900, "con": null, "cap": null }, "geometry": { "type": "Polygon", "coordinates": [ [ [ -62.2659005, -38.7812367 ], [ -62.2657573, -38.7811112 ], [ -62.2658251, -38.781056 ], [ -62.2659105, -38.7811338 ], [ -62.265918, -38.7811212 ], [ -62.2659858, -38.781174 ], [ -62.2659005, -38.7812367 ] ] ] } },
{ "type": "Feature", "properties": { "id": 5, "nom": "Escuela N15", "dir": "Siches 4048", "res": null, "num": "2914646326", "adm": "Gabriela Goñi", "mat": 126, "cue": 60477200, "con": null, "cap": null }, "geometry": { "type": "Polygon", "coordinates": [ [ [ -62.2677837, -38.7858708 ], [ -62.2672928, -38.7860641 ], [ -62.2671723, -38.7858771 ], [ -62.2676054, -38.7856774 ], [ -62.2676531, -38.7857565 ], [ -62.2676983, -38.7857327 ], [ -62.2677837, -38.7858708 ] ] ] } },
{ "type": "Feature", "properties": { "id": 2, "nom": "Jardín 7625", "dir": "Magallanes 3897", "res": null, "num": "2916430737", "adm": null, "mat": 57, "cue": 62178500, "con": null, "cap": null }, "geometry": { "type": "Polygon", "coordinates": [ [ [ -62.2727327, -38.781415 ], [ -62.2725364, -38.7815591 ], [ -62.2723866, -38.7814221 ], [ -62.2725703, -38.7812681 ], [ -62.2727327, -38.781415 ] ] ] } },
{ "type": "Feature", "properties": { "id": 7, "nom": "Escuela N70", "dir": "Ingeniero Luiggi 2699", "res": null, "num": "2915050086", "adm": "Gabriela Gerhardt", "mat": 135, "cue": 60484300, "con": null, "cap": null }, "geometry": { "type": "Polygon", "coordinates": [ [ [ -62.2857623, -38.7485398 ], [ -62.2856123, -38.7484189 ], [ -62.2857458, -38.7483262 ], [ -62.2857999, -38.7483781 ], [ -62.28584, -38.7483474 ], [ -62.2859169, -38.7484118 ], [ -62.2857623, -38.7485398 ] ] ] } },
{ "type": "Feature", "properties": { "id": 20, "nom": "Escuela Secundaria N25", "dir": "Ingeniero Luiggi 2701", "res": null, "num": "2916430737", "adm": "Karina D' Andrea", "mat": 123, "cue": 62293500, "con": null, "cap": null }, "geometry": { "type": "Polygon", "coordinates": [ [ [ -62.2858875, -38.7486301 ], [ -62.2857714, -38.7485337 ], [ -62.2859206, -38.7484147 ], [ -62.2860367, -38.7485081 ], [ -62.2858875, -38.7486301 ] ] ] } },
{ "type": "Feature", "properties": { "id": 3, "nom": "Colegio Mosconi", "dir": "Avda. Santiago Dasso y Lautaro", "res": null, "num": "2915747428", "adm": "Raúl Contreras", "mat": 507, "cue": 61123500, "con": null, "cap": null }, "geometry": { "type": "Polygon", "coordinates": [ [ [ -62.2706283, -38.7757326 ], [ -62.2702586, -38.7754195 ], [ -62.2706108, -38.7751857 ], [ -62.2709388, -38.7754615 ], [ -62.2707612, -38.7755979 ], [ -62.2707767, -38.7756116 ], [ -62.2706283, -38.7757326 ] ] ] } },
{ "type": "Feature", "properties": { "id": 22, "nom": "Club Nautico", "dir": null, "res": null, "num": null, "adm": "Rodolfo Amaya", "mat": null, "cue": null, "con": null, "cap": null }, "geometry": { "type": "Polygon", "coordinates": [ [ [ -62.2789626, -38.7893322 ], [ -62.2788765, -38.7891203 ], [ -62.2789571, -38.7890985 ], [ -62.2790364, -38.7893117 ], [ -62.2789626, -38.7893322 ] ] ] } },
{ "type": "Feature", "properties": { "id": 23, "nom": "Club de pesca Galván", "dir": null, "res": null, "num": null, "adm": "Rosario Bernal", "mat": null, "cue": null, "con": null, "cap": null }, "geometry": { "type": "Polygon", "coordinates": [ [ [ -62.2992757, -38.7797664 ], [ -62.2992101, -38.7801381 ], [ -62.2988658, -38.7800725 ], [ -62.2989314, -38.7797172 ], [ -62.2992757, -38.7797664 ] ] ] } },
{ "type": "Feature", "properties": { "id": 24, "nom": "CENS 456", "dir": "Av. Santiago Dasso y Lautaro", "res": null, "num": "2914196529", "adm": "Daniel Kohler", "mat": 145, "cue": 62382300, "con": null, "cap": null }, "geometry": { "type": "Polygon", "coordinates": [ [ [ -62.2703992, -38.7753173 ], [ -62.2704156, -38.7753063 ], [ -62.2703691, -38.7752845 ], [ -62.2702816, -38.7753473 ], [ -62.2702024, -38.7752899 ], [ -62.2704648, -38.7750767 ], [ -62.2706151, -38.7751888 ], [ -62.2703992, -38.7753173 ] ] ] } },
{ "type": "Feature", "properties": { "id": 25, "nom": "Escuela 38 anexo 2", "dir": "Emilio Rosas y Reconquista", "res": null, "num": "2914613584", "adm": "Beatriz Acosta", "mat": 62, "cue": 61737602, "con": null, "cap": null }, "geometry": { "type": "Polygon", "coordinates": [ [ [ -62.2421759, -38.7683634 ], [ -62.2419891, -38.7683019 ], [ -62.2420825, -38.7681528 ], [ -62.2422636, -38.7682177 ], [ -62.2421759, -38.7683634 ] ] ] } },
{ "type": "Feature", "properties": { "id": 26, "nom": "Escuela 40", "dir": "Nueva Provincia", "res": null, "num": "2915715043", "adm": "Daniela Dalmas", "mat": 80, "cue": 60484400, "con": null, "cap": null }, "geometry": { "type": "Polygon", "coordinates": [ [ [ -62.2423517, -38.7684266 ], [ -62.2422094, -38.7683711 ], [ -62.2422745, -38.7682717 ], [ -62.2424156, -38.7683313 ], [ -62.2423517, -38.7684266 ] ] ] } },
{ "type": "Feature", "properties": { "id": 27, "nom": "Jardin 943", "dir": "Nueva Provincia", "res": null, "num": "2914424582", "adm": "Juliana González", "mat": 53, "cue": 60483900, "con": null, "cap": null }, "geometry": { "type": "Polygon", "coordinates": [ [ [ -62.2424481, -38.7681858 ], [ -62.242431, -38.7682234 ], [ -62.2422431, -38.7681596 ], [ -62.2424002, -38.7679728 ], [ -62.2425392, -38.7680298 ], [ -62.2424481, -38.7681858 ] ] ] } }
]
}
