{
  "type": "FeatureCollection",
  "name": "CENTRO_SALUD",
  "features": [
    {
      "type": "Feature",
      "properties": {
        "id": 1,
        "nom": "Unidad Sanitaria Villa Bordeu",
        "dir": "Larrea 5650",
        "res": null,
        "num": "4885679",
        "adm": null,
        "ges": "Unidad Sanitaria",
        "cap": null
      },
      "geometry": {
        "type": "MultiPolygon",
        "coordinates": [
          [
            [
              [
                -62.3436741,
                -38.6906756
              ],
              [
                -62.3435475,
                -38.6906766
              ],
              [
                -62.3435475,
                -38.6908371
              ],
              [
                -62.3435829,
                -38.6908375
              ],
              [
                -62.3435813,
                -38.6908717
              ],
              [
                -62.3436481,
                -38.6908712
              ],
              [
                -62.3436714,
                -38.6908717
              ],
              [
                -62.3436709,
                -38.6908388
              ],
              [
                -62.3436571,
                -38.6908381
              ],
              [
                -62.3436584,
                -38.6908017
              ],
              [
                -62.3436817,
                -38.6908021
              ],
              [
                -62.3436741,
                -38.6906756
              ]
            ]
          ]
        ]
      }
    },
    {
      "type": "Feature",
      "properties": {
        "id": 2,
        "nom": "Unidad Sanitaria San Dionisio",
        "dir": "Rondeau 2214",
        "res": null,
        "num": "4550211",
        "adm": null,
        "ges": "Unidad Sanitaria",
        "cap": null
      },
      "geometry": {
        "type": "MultiPolygon",
        "coordinates": [
          [
            [
              [
                -62.2925212,
                -38.7362034
              ],
              [
                -62.292636,
                -38.736115
              ],
              [
                -62.292783,
                -38.736236
              ],
              [
                -62.292863,
                -38.7361708
              ],
              [
                -62.2928877,
                -38.7361409
              ],
              [
                -62.2928591,
                -38.7361244
              ],
              [
                -62.2928341,
                -38.7361458
              ],
              [
                -62.2926868,
                -38.7360266
              ],
              [
                -62.2926681,
                -38.7360412
              ],
              [
                -62.292638,
                -38.7360165
              ],
              [
                -62.29262,
                -38.7360181
              ],
              [
                -62.2926427,
                -38.7359976
              ],
              [
                -62.2926372,
                -38.7359876
              ],
              [
                -62.2925835,
                -38.7359944
              ],
              [
                -62.2924397,
                -38.7361066
              ],
              [
                -62.2924751,
                -38.7361741
              ],
              [
                -62.2925212,
                -38.7362034
              ]
            ]
          ]
        ]
      }
    },
    {
      "type": "Feature",
      "properties": {
        "id": 3,
        "nom": "Unidad Sanitaria Loma Paraguay",
        "dir": "Feliz Frías 850",
        "res": null,
        "num": "4565592",
        "adm": null,
        "ges": "Unidad Sanitaria",
        "cap": null
      },
      "geometry": {
        "type": "MultiPolygon",
        "coordinates": [
          [
            [
              [
                -62.2856681,
                -38.7478436
              ],
              [
                -62.2856534,
                -38.747866
              ],
              [
                -62.2856346,
                -38.7478483
              ],
              [
                -62.2855901,
                -38.7478766
              ],
              [
                -62.2855596,
                -38.7478882
              ],
              [
                -62.2856503,
                -38.7479601
              ],
              [
                -62.2857025,
                -38.7479224
              ],
              [
                -62.28573,
                -38.7479449
              ],
              [
                -62.2857642,
                -38.7479135
              ],
              [
                -62.2856681,
                -38.7478436
              ]
            ]
          ]
        ]
      }
    },
    {
      "type": "Feature",
      "properties": {
        "id": 4,
        "nom": "Unidad Sanitaria Villa Delfina",
        "dir": "Juana Azurduy 1345",
        "res": null,
        "num": "4552271",
        "adm": null,
        "ges": "Unidad Sanitaria",
        "cap": null
      },
      "geometry": {
        "type": "MultiPolygon",
        "coordinates": [
          [
            [
              [
                -62.2758147,
                -38.7503218
              ],
              [
                -62.2758352,
                -38.750303
              ],
              [
                -62.2759011,
                -38.7503567
              ],
              [
                -62.2759619,
                -38.7503036
              ],
              [
                -62.2759231,
                -38.7502756
              ],
              [
                -62.2758996,
                -38.7502921
              ],
              [
                -62.2758813,
                -38.7502756
              ],
              [
                -62.2758982,
                -38.7502579
              ],
              [
                -62.2758528,
                -38.7502224
              ],
              [
                -62.2758366,
                -38.750239
              ],
              [
                -62.2758191,
                -38.750227
              ],
              [
                -62.2758388,
                -38.7502076
              ],
              [
                -62.2757641,
                -38.7501499
              ],
              [
                -62.2756777,
                -38.7502133
              ],
              [
                -62.2758147,
                -38.7503218
              ]
            ]
          ]
        ]
      }
    },
    {
      "type": "Feature",
      "properties": {
        "id": 5,
        "nom": "Hospital Naval Puerto Belgrano",
        "dir": "s/n",
        "res": null,
        "num": "2932489549",
        "adm": null,
        "ges": "Centro de quemados",
        "cap": null
      },
      "geometry": {
        "type": "MultiPolygon",
        "coordinates": [
          [
            [
              [
                -62.0965996,
                -38.8845211
              ],
              [
                -62.096145,
                -38.8844346
              ],
              [
                -62.096044,
                -38.8848514
              ],
              [
                -62.0964581,
                -38.8848592
              ],
              [
                -62.0965996,
                -38.8845211
              ]
            ]
          ]
        ]
      }
    },
    {
      "type": "Feature",
      "properties": {
        "id": 6,
        "nom": "Unidad Sanitaria San José Obre",
        "dir": "Reconquista 3084",
        "res": null,
        "num": "4570474",
        "adm": null,
        "ges": "Unidad Sanitaria",
        "cap": null
      },
      "geometry": {
        "type": "MultiPolygon",
        "coordinates": [
          [
            [
              [
                -62.2555093,
                -38.7789519
              ],
              [
                -62.2554983,
                -38.7789617
              ],
              [
                -62.2554507,
                -38.7789269
              ],
              [
                -62.2553327,
                -38.7790238
              ],
              [
                -62.255385,
                -38.7790585
              ],
              [
                -62.2554092,
                -38.7791134
              ],
              [
                -62.2554288,
                -38.7790999
              ],
              [
                -62.2554897,
                -38.7791475
              ],
              [
                -62.2555929,
                -38.7790634
              ],
              [
                -62.2555968,
                -38.7790195
              ],
              [
                -62.2555093,
                -38.7789519
              ]
            ]
          ]
        ]
      }
    },
    {
      "type": "Feature",
      "properties": {
        "id": 7,
        "nom": "Centro de Salud Leonor Capelli",
        "dir": "Harris 3599",
        "res": null,
        "num": "2914573132",
        "adm": null,
        "ges": "Centro de Salud",
        "cap": null
      },
      "geometry": {
        "type": "MultiPolygon",
        "coordinates": [
          [
            [
              [
                -62.2719104,
                -38.7759565
              ],
              [
                -62.2719499,
                -38.7759248
              ],
              [
                -62.2719487,
                -38.775919
              ],
              [
                -62.2720479,
                -38.7758404
              ],
              [
                -62.2720284,
                -38.7758258
              ],
              [
                -62.2721099,
                -38.7757623
              ],
              [
                -62.2720255,
                -38.7756925
              ],
              [
                -62.2720149,
                -38.7756986
              ],
              [
                -62.2718915,
                -38.7756091
              ],
              [
                -62.2716797,
                -38.7757519
              ],
              [
                -62.2719104,
                -38.7759565
              ]
            ]
          ]
        ]
      }
    },
    {
      "type": "Feature",
      "properties": {
        "id": 8,
        "nom": "Unidad Sanitaria Villa Rosas",
        "dir": "Libertad 1955",
        "res": null,
        "num": "4552418",
        "adm": null,
        "ges": "Unidad Sanitaria",
        "cap": null
      },
      "geometry": {
        "type": "MultiPolygon",
        "coordinates": [
          [
            [
              [
                -62.261437,
                -38.7560067
              ],
              [
                -62.2616371,
                -38.7558513
              ],
              [
                -62.2615558,
                -38.7557983
              ],
              [
                -62.2614698,
                -38.7558757
              ],
              [
                -62.2613659,
                -38.7559445
              ],
              [
                -62.261437,
                -38.7560067
              ]
            ]
          ]
        ]
      }
    },
    {
      "type": "Feature",
      "properties": {
        "id": 9,
        "nom": "Unidad Sanitaria Cis Spurr",
        "dir": "Esmeralda 1450",
        "res": null,
        "num": "4511862",
        "adm": null,
        "ges": "Unidad Sanitaria",
        "cap": null
      },
      "geometry": {
        "type": "MultiPolygon",
        "coordinates": [
          [
            [
              [
                -62.2532524,
                -38.7546952
              ],
              [
                -62.2533145,
                -38.754647
              ],
              [
                -62.2532121,
                -38.7545632
              ],
              [
                -62.2532055,
                -38.754566
              ],
              [
                -62.2531828,
                -38.7545498
              ],
              [
                -62.2531262,
                -38.7545072
              ],
              [
                -62.2531332,
                -38.7545005
              ],
              [
                -62.2530863,
                -38.7544664
              ],
              [
                -62.2530453,
                -38.754431
              ],
              [
                -62.2530058,
                -38.7543987
              ],
              [
                -62.2529937,
                -38.7544075
              ],
              [
                -62.2529406,
                -38.7543692
              ],
              [
                -62.2528464,
                -38.7544395
              ],
              [
                -62.2528292,
                -38.7544216
              ],
              [
                -62.2527015,
                -38.7545054
              ],
              [
                -62.2525968,
                -38.7546044
              ],
              [
                -62.2526815,
                -38.7546597
              ],
              [
                -62.2527218,
                -38.7546263
              ],
              [
                -62.2527655,
                -38.7545922
              ],
              [
                -62.252939,
                -38.7544587
              ],
              [
                -62.2529859,
                -38.7544883
              ],
              [
                -62.2530558,
                -38.7545434
              ],
              [
                -62.2529867,
                -38.754594
              ],
              [
                -62.2529472,
                -38.7546248
              ],
              [
                -62.2528695,
                -38.754686
              ],
              [
                -62.2529664,
                -38.7547564
              ],
              [
                -62.2530555,
                -38.7546897
              ],
              [
                -62.2531101,
                -38.7546504
              ],
              [
                -62.2531453,
                -38.7546163
              ],
              [
                -62.2532524,
                -38.7546952
              ]
            ]
          ]
        ]
      }
    },
    {
      "type": "Feature",
      "properties": {
        "id": 10,
        "nom": "Unidad Sanitaria Saladero",
        "dir": "Reconquista 2045",
        "res": null,
        "num": "4570427",
        "adm": null,
        "ges": "Unidad Sanitaria",
        "cap": null
      },
      "geometry": {
        "type": "MultiPolygon",
        "coordinates": [
          [
            [
              [
                -62.2453004,
                -38.7708236
              ],
              [
                -62.2455625,
                -38.7709144
              ],
              [
                -62.2457339,
                -38.7707681
              ],
              [
                -62.2455366,
                -38.770647
              ],
              [
                -62.2453004,
                -38.7708236
              ]
            ]
          ]
        ]
      }
    },
    {
      "type": "Feature",
      "properties": {
        "id": 11,
        "nom": "Unidad Sanitaria Rosario Sur",
        "dir": "Venezuela 296",
        "res": null,
        "num": "4821625",
        "adm": null,
        "ges": "Unidad Sanitaria",
        "cap": null
      },
      "geometry": {
        "type": "MultiPolygon",
        "coordinates": [
          [
            [
              [
                -62.2466009,
                -38.7403227
              ],
              [
                -62.2467283,
                -38.7402199
              ],
              [
                -62.2466419,
                -38.7401519
              ],
              [
                -62.2465085,
                -38.7402478
              ],
              [
                -62.2466009,
                -38.7403227
              ]
            ]
          ]
        ]
      }
    },
    {
      "type": "Feature",
      "properties": {
        "id": 12,
        "nom": "Unidad Sanitaria Barrio Obrero",
        "dir": "Chiclana 1974",
        "res": null,
        "num": "4821674",
        "adm": null,
        "ges": "Unidad Sanitaria",
        "cap": null
      },
      "geometry": {
        "type": "MultiPolygon",
        "coordinates": [
          [
            [
              [
                -62.2444672,
                -38.7355044
              ],
              [
                -62.2446348,
                -38.7353764
              ],
              [
                -62.2446336,
                -38.7353215
              ],
              [
                -62.2444848,
                -38.7352082
              ],
              [
                -62.244391,
                -38.7352648
              ],
              [
                -62.2444637,
                -38.7353362
              ],
              [
                -62.2443594,
                -38.735413
              ],
              [
                -62.2444672,
                -38.7355044
              ]
            ]
          ]
        ]
      }
    },
    {
      "type": "Feature",
      "properties": {
        "id": 13,
        "nom": "Hospital Dr. José Penna",
        "dir": "Av. Lainez 2401",
        "res": null,
        "num": "2914593600",
        "adm": null,
        "ges": "Hospital Público",
        "cap": null
      },
      "geometry": {
        "type": "MultiPolygon",
        "coordinates": [
          [
            [
              [
                -62.2292815,
                -38.7302162
              ],
              [
                -62.2294761,
                -38.7300434
              ],
              [
                -62.229387,
                -38.7299794
              ],
              [
                -62.2297421,
                -38.7297024
              ],
              [
                -62.2293143,
                -38.729365
              ],
              [
                -62.229435,
                -38.7292644
              ],
              [
                -62.2291022,
                -38.7290074
              ],
              [
                -62.2287329,
                -38.7292973
              ],
              [
                -62.228665,
                -38.7292452
              ],
              [
                -62.2285478,
                -38.7293448
              ],
              [
                -62.2283297,
                -38.7291976
              ],
              [
                -62.2282793,
                -38.7292397
              ],
              [
                -62.228413,
                -38.7293421
              ],
              [
                -62.228236,
                -38.7294811
              ],
              [
                -62.228488,
                -38.7296777
              ],
              [
                -62.2285817,
                -38.7296018
              ],
              [
                -62.2286427,
                -38.7296521
              ],
              [
                -62.2285466,
                -38.729728
              ],
              [
                -62.2286732,
                -38.729824
              ],
              [
                -62.2287951,
                -38.7297289
              ],
              [
                -62.2288619,
                -38.7297783
              ],
              [
                -62.2287388,
                -38.7298734
              ],
              [
                -62.2288513,
                -38.7299721
              ],
              [
                -62.2289205,
                -38.7299227
              ],
              [
                -62.2288759,
                -38.7298862
              ],
              [
                -62.2290002,
                -38.7297947
              ],
              [
                -62.2291022,
                -38.7298724
              ],
              [
                -62.2289721,
                -38.7299685
              ],
              [
                -62.2292815,
                -38.7302162
              ]
            ]
          ]
        ]
      }
    },
    {
      "type": "Feature",
      "properties": {
        "id": 14,
        "nom": "Hospital Militar",
        "dir": "Florida 1450",
        "res": null,
        "num": "2914880000",
        "adm": null,
        "ges": "Hospital Público",
        "cap": null
      },
      "geometry": {
        "type": "MultiPolygon",
        "coordinates": [
          [
            [
              [
                -62.2650419,
                -38.6889112
              ],
              [
                -62.2650508,
                -38.6887798
              ],
              [
                -62.2647849,
                -38.688759
              ],
              [
                -62.2647672,
                -38.6888974
              ],
              [
                -62.2650419,
                -38.6889112
              ]
            ]
          ]
        ]
      }
    },
    {
      "type": "Feature",
      "properties": {
        "id": 15,
        "nom": "Unidad Sanitaria Villa Floresta",
        "dir": "José Ingenieros 2235",
        "res": null,
        "num": "4888365",
        "adm": null,
        "ges": "Unidad Sanitaria",
        "cap": null
      },
      "geometry": {
        "type": "MultiPolygon",
        "coordinates": [
          [
            [
              [
                -62.2723275,
                -38.6857204
              ],
              [
                -62.272412,
                -38.6856528
              ],
              [
                -62.2722574,
                -38.6855434
              ],
              [
                -62.2721749,
                -38.6856077
              ],
              [
                -62.2723275,
                -38.6857204
              ]
            ]
          ]
        ]
      }
    },
    {
      "type": "Feature",
      "properties": {
        "id": 16,
        "nom": "Centro de Salud Leandro Piñeiro",
        "dir": "Adrián Morado Veres 2050",
        "res": null,
        "num": "2914546309",
        "adm": null,
        "ges": "Centro de Salud",
        "cap": null
      },
      "geometry": {
        "type": "MultiPolygon",
        "coordinates": [
          [
            [
              [
                -62.3139542,
                -38.7180151
              ],
              [
                -62.314247,
                -38.7180202
              ],
              [
                -62.3142511,
                -38.7178267
              ],
              [
                -62.3139604,
                -38.7178255
              ],
              [
                -62.3139565,
                -38.7178438
              ],
              [
                -62.3139229,
                -38.7178438
              ],
              [
                -62.3139104,
                -38.7179785
              ],
              [
                -62.3139511,
                -38.7179773
              ],
              [
                -62.3139542,
                -38.7180151
              ]
            ]
          ]
        ]
      }
    },
    {
      "type": "Feature",
      "properties": {
        "id": 17,
        "nom": "Unidad Sanitaria Maldonado",
        "dir": "Gral. Pablo Richieri 2535",
        "res": null,
        "num": "4550257",
        "adm": null,
        "ges": "Unidad Sanitaria",
        "cap": null
      },
      "geometry": {
        "type": "MultiPolygon",
        "coordinates": [
          [
            [
              [
                -62.3195689,
                -38.7174309
              ],
              [
                -62.3195323,
                -38.7174593
              ],
              [
                -62.3195407,
                -38.7174682
              ],
              [
                -62.3195125,
                -38.7174909
              ],
              [
                -62.3196211,
                -38.7175742
              ],
              [
                -62.3196453,
                -38.7175498
              ],
              [
                -62.31963,
                -38.7175393
              ],
              [
                -62.3196449,
                -38.7175284
              ],
              [
                -62.3196162,
                -38.7175065
              ],
              [
                -62.3196412,
                -38.7174876
              ],
              [
                -62.3195689,
                -38.7174309
              ]
            ]
          ]
        ]
      }
    },
    {
      "type": "Feature",
      "properties": {
        "id": 18,
        "nom": "Unidad Sanitaria Villa Nocito",
        "dir": "Pacifico 1925",
        "res": null,
        "num": "4550240",
        "adm": null,
        "ges": "Unidad Sanitaria",
        "cap": null
      },
      "geometry": {
        "type": "MultiPolygon",
        "coordinates": [
          [
            [
              [
                -62.3124011,
                -38.721884
              ],
              [
                -62.3124383,
                -38.7218609
              ],
              [
                -62.3124027,
                -38.7218319
              ],
              [
                -62.3124351,
                -38.7218115
              ],
              [
                -62.3123629,
                -38.7217548
              ],
              [
                -62.3122968,
                -38.7217984
              ],
              [
                -62.3124011,
                -38.721884
              ]
            ]
          ]
        ]
      }
    },
    {
      "type": "Feature",
      "properties": {
        "id": 19,
        "nom": "Unidad Sanitaria Villa Ressia",
        "dir": "Misiones 1570",
        "res": null,
        "num": "4565591",
        "adm": null,
        "ges": "Unidad Sanitaria",
        "cap": null
      },
      "geometry": {
        "type": "MultiPolygon",
        "coordinates": [
          [
            [
              [
                -62.2718839,
                -38.7427765
              ],
              [
                -62.2719997,
                -38.7426969
              ],
              [
                -62.2719114,
                -38.7426448
              ],
              [
                -62.2717995,
                -38.7427183
              ],
              [
                -62.2718839,
                -38.7427765
              ]
            ]
          ]
        ]
      }
    },
    {
      "type": "Feature",
      "properties": {
        "id": 20,
        "nom": "Hospital Italiano Regional del S",
        "dir": "Necochea 675",
        "res": null,
        "num": "2915506700",
        "adm": null,
        "ges": "Hospital Privado",
        "cap": null
      },
      "geometry": {
        "type": "MultiPolygon",
        "coordinates": [
          [
            [
              [
                -62.2346039,
                -38.7330801
              ],
              [
                -62.2345295,
                -38.7330293
              ],
              [
                -62.2344457,
                -38.7330956
              ],
              [
                -62.2343787,
                -38.7330391
              ],
              [
                -62.2344205,
                -38.7330024
              ],
              [
                -62.2344416,
                -38.733017
              ],
              [
                -62.2344631,
                -38.7329988
              ],
              [
                -62.2344074,
                -38.7329538
              ],
              [
                -62.2344209,
                -38.7329412
              ],
              [
                -62.2343438,
                -38.7328795
              ],
              [
                -62.2343098,
                -38.7329033
              ],
              [
                -62.2342495,
                -38.7328521
              ],
              [
                -62.2341704,
                -38.7329136
              ],
              [
                -62.234185,
                -38.7329268
              ],
              [
                -62.2341173,
                -38.7329723
              ],
              [
                -62.2341156,
                -38.7329865
              ],
              [
                -62.2340927,
                -38.7330073
              ],
              [
                -62.2340605,
                -38.7330327
              ],
              [
                -62.2339834,
                -38.7329668
              ],
              [
                -62.2338773,
                -38.7330464
              ],
              [
                -62.2338258,
                -38.7330843
              ],
              [
                -62.2337973,
                -38.7331257
              ],
              [
                -62.2339014,
                -38.7331975
              ],
              [
                -62.2339195,
                -38.733181
              ],
              [
                -62.2340766,
                -38.7332976
              ],
              [
                -62.2341434,
                -38.7332459
              ],
              [
                -62.2342044,
                -38.7332949
              ],
              [
                -62.2342641,
                -38.7333401
              ],
              [
                -62.2344821,
                -38.7331787
              ],
              [
                -62.2346039,
                -38.7330801
              ]
            ]
          ]
        ]
      }
    },
    {
      "type": "Feature",
      "properties": {
        "id": 21,
        "nom": "Hospital Privado Sur",
        "dir": "Las Heras 164",
        "res": null,
        "num": "2914550270",
        "adm": null,
        "ges": "Hospital Privado",
        "cap": null
      },
      "geometry": {
        "type": "MultiPolygon",
        "coordinates": [
          [
            [
              [
                -62.2610108,
                -38.7190119
              ],
              [
                -62.2610934,
                -38.7189433
              ],
              [
                -62.2607633,
                -38.7187159
              ],
              [
                -62.2607014,
                -38.7187883
              ],
              [
                -62.2610108,
                -38.7190119
              ]
            ]
          ]
        ]
      }
    },
    {
      "type": "Feature",
      "properties": {
        "id": 22,
        "nom": "Hospital Dr. Raúl Matera",
        "dir": "9 de Julio 461",
        "res": null,
        "num": "291455880",
        "adm": null,
        "ges": "Hospital Privado",
        "cap": null
      },
      "geometry": {
        "type": "MultiPolygon",
        "coordinates": [
          [
            [
              [
                -62.2799372,
                -38.7213269
              ],
              [
                -62.2800568,
                -38.7212514
              ],
              [
                -62.2798159,
                -38.7210491
              ],
              [
                -62.2796964,
                -38.7211225
              ],
              [
                -62.2799372,
                -38.7213269
              ]
            ]
          ]
        ]
      }
    },
    {
      "type": "Feature",
      "properties": {
        "id": 23,
        "nom": "Hospital Dr. Felipe Glasman (HAM",
        "dir": "Patricios 347",
        "res": null,
        "num": "2914557877",
        "adm": null,
        "ges": "Centro Asistenciales",
        "cap": null
      },
      "geometry": {
        "type": "MultiPolygon",
        "coordinates": [
          [
            [
              [
                -62.2784648,
                -38.717456
              ],
              [
                -62.2787997,
                -38.7172071
              ],
              [
                -62.2786904,
                -38.7171288
              ],
              [
                -62.2784556,
                -38.7173013
              ],
              [
                -62.2783736,
                -38.7172337
              ],
              [
                -62.2782597,
                -38.7173066
              ],
              [
                -62.2784648,
                -38.717456
              ]
            ]
          ]
        ]
      }
    },
    {
      "type": "Feature",
      "properties": {
        "id": 24,
        "nom": "Hospital Regional Español",
        "dir": "Estomba 571",
        "res": null,
        "num": "2914595555",
        "adm": null,
        "ges": "Hospital Privado",
        "cap": null
      },
      "geometry": {
        "type": "MultiPolygon",
        "coordinates": [
          [
            [
              [
                -62.2722935,
                -38.7136497
              ],
              [
                -62.2725806,
                -38.7134292
              ],
              [
                -62.2725738,
                -38.7133866
              ],
              [
                -62.2724918,
                -38.7133243
              ],
              [
                -62.2723072,
                -38.7134719
              ],
              [
                -62.272191,
                -38.7135608
              ],
              [
                -62.2722935,
                -38.7136497
              ]
            ]
          ]
        ]
      }
    },
    {
      "type": "Feature",
      "properties": {
        "id": 25,
        "nom": "Hospital Dr. Leonidas Lucero",
        "dir": "Estomba 968",
        "res": null,
        "num": "2914598484",
        "adm": null,
        "ges": "Hospital Público",
        "cap": null
      },
      "geometry": {
        "type": "MultiPolygon",
        "coordinates": [
          [
            [
              [
                -62.276937,
                -38.7104589
              ],
              [
                -62.2773996,
                -38.7101193
              ],
              [
                -62.2772856,
                -38.7100517
              ],
              [
                -62.2768435,
                -38.7103895
              ],
              [
                -62.276937,
                -38.7104589
              ]
            ]
          ]
        ]
      }
    },
    {
      "type": "Feature",
      "properties": {
        "id": 26,
        "nom": "Asociación Medica Bahia Blanca",
        "dir": "Castelli 213",
        "res": null,
        "num": "2914553252",
        "adm": null,
        "ges": null,
        "cap": null
      },
      "geometry": {
        "type": "MultiPolygon",
        "coordinates": [
          [
            [
              [
                -62.2726842,
                -38.7199813
              ],
              [
                -62.2727868,
                -38.7199067
              ],
              [
                -62.2727161,
                -38.7198587
              ],
              [
                -62.2726022,
                -38.7199404
              ],
              [
                -62.2726842,
                -38.7199813
              ]
            ]
          ]
        ]
      }
    },
    {
      "type": "Feature",
      "properties": {
        "id": 27,
        "nom": "Centro de Salud Norte",
        "dir": "Vieytes 2616",
        "res": null,
        "num": "4888267",
        "adm": null,
        "ges": "Centro de Salud",
        "cap": null
      },
      "geometry": {
        "type": "MultiPolygon",
        "coordinates": [
          [
            [
              [
                -62.2979123,
                -38.6987555
              ],
              [
                -62.2980758,
                -38.6986354
              ],
              [
                -62.2979193,
                -38.6984996
              ],
              [
                -62.2979,
                -38.698514
              ],
              [
                -62.297871,
                -38.69849
              ],
              [
                -62.2977751,
                -38.6985572
              ],
              [
                -62.2977189,
                -38.6985709
              ],
              [
                -62.2977655,
                -38.6986107
              ],
              [
                -62.2977514,
                -38.6986265
              ],
              [
                -62.2979123,
                -38.6987555
              ]
            ]
          ]
        ]
      }
    },
    {
      "type": "Feature",
      "properties": {
        "id": 28,
        "nom": "Unidad Sanitaria Harding green",
        "dir": "Salinas Chicas 4150",
        "res": null,
        "num": "4862447",
        "adm": null,
        "ges": "Unidad Sanitaria",
        "cap": null
      },
      "geometry": {
        "type": "MultiPolygon",
        "coordinates": [
          [
            [
              [
                -62.1892373,
                -38.7146229
              ],
              [
                -62.1893245,
                -38.7145533
              ],
              [
                -62.1892651,
                -38.7145084
              ],
              [
                -62.1891778,
                -38.7145794
              ],
              [
                -62.1892373,
                -38.7146229
              ]
            ]
          ]
        ]
      }
    },
    {
      "type": "Feature",
      "properties": {
        "id": 29,
        "nom": "Centro de Salud 9 de Noviembre",
        "dir": "Leopoldo Marehal y Remedios de",
        "res": null,
        "num": "4822622",
        "adm": null,
        "ges": "Centro de Salud",
        "cap": null
      },
      "geometry": {
        "type": "MultiPolygon",
        "coordinates": [
          [
            [
              [
                -62.2277858,
                -38.7173905
              ],
              [
                -62.2279288,
                -38.7172862
              ],
              [
                -62.2278304,
                -38.717221
              ],
              [
                -62.2277097,
                -38.717321
              ],
              [
                -62.2277858,
                -38.7173905
              ]
            ]
          ]
        ]
      }
    },
    {
      "type": "Feature",
      "properties": {
        "id": 30,
        "nom": "Unidad Sanitaria Miramar",
        "dir": "Laudelino Cruz 1892",
        "res": null,
        "num": "4552417",
        "adm": null,
        "ges": "Unidad Sanitaria",
        "cap": null
      },
      "geometry": {
        "type": "MultiPolygon",
        "coordinates": [
          [
            [
              [
                -62.2395236,
                -38.7105225
              ],
              [
                -62.2394537,
                -38.7104774
              ],
              [
                -62.2392541,
                -38.7106347
              ],
              [
                -62.239304,
                -38.7106721
              ],
              [
                -62.2395236,
                -38.7105225
              ]
            ]
          ]
        ]
      }
    },
    {
      "type": "Feature",
      "properties": {
        "id": 31,
        "nom": "Unidad Sanitaria Anchorena",
        "dir": "3 de Febrero 1658",
        "res": null,
        "num": "4815400",
        "adm": null,
        "ges": "Unidad Sanitaria",
        "cap": null
      },
      "geometry": {
        "type": "MultiPolygon",
        "coordinates": [
          [
            [
              [
                -62.237559,
                -38.724534
              ],
              [
                -62.2376408,
                -38.7244748
              ],
              [
                -62.237563,
                -38.7244312
              ],
              [
                -62.2374911,
                -38.7244763
              ],
              [
                -62.237559,
                -38.724534
              ]
            ]
          ]
        ]
      }
    },
    {
      "type": "Feature",
      "properties": {
        "id": 32,
        "nom": "Unidad Sanitaria Avellaneda",
        "dir": "Nicaragua 2953",
        "res": null,
        "num": "4888350",
        "adm": null,
        "ges": "Unidad Sanitaria",
        "cap": null
      },
      "geometry": {
        "type": "MultiPolygon",
        "coordinates": [
          [
            [
              [
                -62.2933677,
                -38.6905007
              ],
              [
                -62.2934795,
                -38.6904275
              ],
              [
                -62.293212,
                -38.6902342
              ],
              [
                -62.2931122,
                -38.690295
              ],
              [
                -62.2933677,
                -38.6905007
              ]
            ]
          ]
        ]
      }
    },
    {
      "type": "Feature",
      "properties": {
        "id": 33,
        "nom": "Unidad Sanitaria Bella Vista",
        "dir": "Charcas 906",
        "res": null,
        "num": "4565569",
        "adm": null,
        "ges": "Unidad Sanitaria",
        "cap": null
      },
      "geometry": {
        "type": "MultiPolygon",
        "coordinates": [
          [
            [
              [
                -62.2492074,
                -38.715434
              ],
              [
                -62.2493015,
                -38.7153643
              ],
              [
                -62.2492407,
                -38.7153066
              ],
              [
                -62.2491705,
                -38.7152975
              ],
              [
                -62.249087,
                -38.7153476
              ],
              [
                -62.2492074,
                -38.715434
              ]
            ]
          ]
        ]
      }
    },
    {
      "type": "Feature",
      "properties": {
        "id": 34,
        "nom": "Unidad Sanitaria Lujan",
        "dir": "Enrique Julio 806",
        "res": null,
        "num": "4888351",
        "adm": null,
        "ges": "Unidad Sanitaria",
        "cap": null
      },
      "geometry": {
        "type": "MultiPolygon",
        "coordinates": [
          [
            [
              [
                -62.2996278,
                -38.708278
              ],
              [
                -62.2998114,
                -38.7081475
              ],
              [
                -62.2997623,
                -38.7081092
              ],
              [
                -62.2996884,
                -38.7081069
              ],
              [
                -62.2995455,
                -38.7082184
              ],
              [
                -62.2996278,
                -38.708278
              ]
            ]
          ]
        ]
      }
    },
    {
      "type": "Feature",
      "properties": {
        "id": 35,
        "nom": "Unidad Sanitaria Mariano Moreno",
        "dir": "Mendoza 1250",
        "res": null,
        "num": "4552088",
        "adm": null,
        "ges": "Unidad Sanitaria",
        "cap": null
      },
      "geometry": {
        "type": "MultiPolygon",
        "coordinates": [
          [
            [
              [
                -62.2928609,
                -38.7209135
              ],
              [
                -62.2930477,
                -38.7207781
              ],
              [
                -62.2933313,
                -38.7205532
              ],
              [
                -62.2932649,
                -38.7205087
              ],
              [
                -62.292789,
                -38.7208519
              ],
              [
                -62.2928609,
                -38.7209135
              ]
            ]
          ]
        ]
      }
    },
    {
      "type": "Feature",
      "properties": {
        "id": 36,
        "nom": "Unidad Sanitaria Pedro Pico",
        "dir": "Misiones 754",
        "res": null,
        "num": "4565559",
        "adm": null,
        "ges": "Unidad Sanitaria",
        "cap": null
      },
      "geometry": {
        "type": "MultiPolygon",
        "coordinates": [
          [
            [
              [
                -62.263085,
                -38.7354495
              ],
              [
                -62.263296,
                -38.7352859
              ],
              [
                -62.2632186,
                -38.7352374
              ],
              [
                -62.2631038,
                -38.7353279
              ],
              [
                -62.2631108,
                -38.7353398
              ],
              [
                -62.2630569,
                -38.7353864
              ],
              [
                -62.2630428,
                -38.7354166
              ],
              [
                -62.263085,
                -38.7354495
              ]
            ]
          ]
        ]
      }
    },
    {
      "type": "Feature",
      "properties": {
        "id": 37,
        "nom": "Unidad Sanitaria Villa Esperanza",
        "dir": "Berutti 2980",
        "res": null,
        "num": "4813677",
        "adm": null,
        "ges": "Unidad Sanitaria",
        "cap": null
      },
      "geometry": {
        "type": "MultiPolygon",
        "coordinates": [
          [
            [
              [
                -62.237965,
                -38.7472226
              ],
              [
                -62.2381813,
                -38.7470635
              ],
              [
                -62.2381262,
                -38.7470169
              ],
              [
                -62.2381022,
                -38.7470352
              ],
              [
                -62.2380729,
                -38.7470054
              ],
              [
                -62.2380354,
                -38.7469767
              ],
              [
                -62.2379809,
                -38.7470105
              ],
              [
                -62.237951,
                -38.7470388
              ],
              [
                -62.2379539,
                -38.7470827
              ],
              [
                -62.2379422,
                -38.7470973
              ],
              [
                -62.2379674,
                -38.7471243
              ],
              [
                -62.2379498,
                -38.7471417
              ],
              [
                -62.2379105,
                -38.7471215
              ],
              [
                -62.2378953,
                -38.7471147
              ],
              [
                -62.237832,
                -38.7471558
              ],
              [
                -62.2379006,
                -38.7472184
              ],
              [
                -62.237965,
                -38.7472226
              ]
            ]
          ]
        ]
      }
    },
    {
      "type": "Feature",
      "properties": {
        "id": 38,
        "nom": "Unidad Sanitaria Villa Muñiz",
        "dir": "Pilcaniyen 259",
        "res": null,
        "num": "4811080",
        "adm": null,
        "ges": "Unidad Sanitaria",
        "cap": null
      },
      "geometry": {
        "type": "MultiPolygon",
        "coordinates": [
          [
            [
              [
                -62.2257978,
                -38.7462943
              ],
              [
                -62.225935,
                -38.746197
              ],
              [
                -62.2258581,
                -38.7461483
              ],
              [
                -62.2257416,
                -38.746244
              ],
              [
                -62.2257978,
                -38.7462943
              ]
            ]
          ]
        ]
      }
    },
    {
      "type": "Feature",
      "properties": {
        "id": 39,
        "nom": "Unidad Sanitaria Barrio Latino",
        "dir": "Leopoldo Lugones 46",
        "res": null,
        "num": "4889859",
        "adm": null,
        "ges": "Unidad Sanitaria",
        "cap": null
      },
      "geometry": {
        "type": "MultiPolygon",
        "coordinates": [
          [
            [
              [
                -62.3045528,
                -38.6911438
              ],
              [
                -62.304661,
                -38.6910659
              ],
              [
                -62.3045903,
                -38.6910253
              ],
              [
                -62.3044759,
                -38.6910951
              ],
              [
                -62.3045528,
                -38.6911438
              ]
            ]
          ]
        ]
      }
    }
  ]
}