{
  "type": "FeatureCollection",
  "name": "empresas_polo",
  "features": [
    {
      "type": "Feature",
      "properties": {
        "id": 1,
        "Empresaa": "Pan American Energy SL Sucursal Argentina",
        "Contacto": "https://www.axionenergy.com/contacto/",
        "Rubro": "Planta de Almacenamiento y despacho de combustibles"
      },
      "geometry": {
        "type": "MultiPolygon",
        "coordinates": [
          [
            [
              [
                -62.3025161,
                -38.7748238
              ],
              [
                -62.3029966,
                -38.7754911
              ],
              [
                -62.3035522,
                -38.7755145
              ],
              [
                -62.3041529,
                -38.7729916
              ],
              [
                -62.304258,
                -38.7715223
              ],
              [
                -62.3040628,
                -38.7694559
              ],
              [
                -62.3039727,
                -38.7662362
              ],
              [
                -62.3038826,
                -38.7658966
              ],
              [
                -62.3027113,
                -38.7659786
              ],
              [
                -62.3020206,
                -38.7680978
              ],
              [
                -62.3018103,
                -38.7685895
              ],
              [
                -62.3009244,
                -38.7696257
              ],
              [
                -62.3001435,
                -38.7705799
              ],
              [
                -62.3000384,
                -38.7706735
              ],
              [
                -62.3025161,
                -38.7748238
              ]
            ]
          ]
        ]
      }
    },
    {
      "type": "Feature",
      "properties": {
        "id": 2,
        "Empresaa": "YPF",
        "Contacto": "https://www.ypf.com/",
        "Rubro": "Produccion de energía, hidrocarburos y el petróleo"
      },
      "geometry": {
        "type": "MultiPolygon",
        "coordinates": [
          [
            [
              [
                -62.2993627,
                -38.7782773
              ],
              [
                -62.2999952,
                -38.7781807
              ],
              [
                -62.3009413,
                -38.7779407
              ],
              [
                -62.301602,
                -38.7775339
              ],
              [
                -62.3025781,
                -38.775576
              ],
              [
                -62.3023904,
                -38.7754999
              ],
              [
                -62.3023303,
                -38.7753769
              ],
              [
                -62.3016095,
                -38.7756755
              ],
              [
                -62.3008812,
                -38.776252
              ],
              [
                -62.2996517,
                -38.7775778
              ],
              [
                -62.2992951,
                -38.7781105
              ],
              [
                -62.2993627,
                -38.7782773
              ]
            ]
          ]
        ]
      }
    },
    {
      "type": "Feature",
      "properties": {
        "id": 3,
        "Empresaa": "PUMA ENERGY",
        "Contacto": "https://www.pumaenergyarg.com.ar/home",
        "Rubro": "Produccion de energía, hidrocarburos y el petróleo"
      },
      "geometry": {
        "type": "MultiPolygon",
        "coordinates": [
          [
            [
              [
                -62.298411,
                -38.778327
              ],
              [
                -62.2965189,
                -38.7768637
              ],
              [
                -62.2944467,
                -38.7783504
              ],
              [
                -62.2954624,
                -38.7790502
              ],
              [
                -62.2971496,
                -38.7787485
              ],
              [
                -62.2979905,
                -38.7785846
              ],
              [
                -62.298411,
                -38.778327
              ]
            ]
          ]
        ]
      }
    },
    {
      "type": "Feature",
      "properties": {
        "id": 4,
        "Empresaa": "VITERRA",
        "Contacto": "https://www.viterra.com/",
        "Rubro": "Elaboración de Aceites crudos de soja y girasol y almacenaje"
      },
      "geometry": {
        "type": "MultiPolygon",
        "coordinates": [
          [
            [
              [
                -62.2944467,
                -38.7783504
              ],
              [
                -62.2965189,
                -38.7768637
              ],
              [
                -62.2952125,
                -38.7758452
              ],
              [
                -62.2938498,
                -38.7774315
              ],
              [
                -62.29403,
                -38.7780402
              ],
              [
                -62.2944467,
                -38.7783504
              ]
            ]
          ]
        ]
      }
    },
    {
      "type": "Feature",
      "properties": {
        "id": 5,
        "Empresaa": "SHELL",
        "Contacto": "https://www.shell.com.ar/",
        "Rubro": "Produccion de energía, hidrocarburos y el petróleo"
      },
      "geometry": {
        "type": "MultiPolygon",
        "coordinates": [
          [
            [
              [
                -62.2964467,
                -38.7746116
              ],
              [
                -62.2952904,
                -38.7757823
              ],
              [
                -62.2985039,
                -38.7782963
              ],
              [
                -62.2989094,
                -38.7780036
              ],
              [
                -62.2981736,
                -38.7774564
              ],
              [
                -62.2991797,
                -38.7770174
              ],
              [
                -62.2977981,
                -38.7759579
              ],
              [
                -62.2980459,
                -38.7757881
              ],
              [
                -62.2964467,
                -38.7746116
              ]
            ]
          ]
        ]
      }
    },
    {
      "type": "Feature",
      "properties": {
        "id": 6,
        "Empresaa": "TGS",
        "Contacto": "https://www.tgs.com.ar/",
        "Rubro": "Recepción, almacenaje y despacho de GLP"
      },
      "geometry": {
        "type": "MultiPolygon",
        "coordinates": [
          [
            [
              [
                -62.2999033,
                -38.7710748
              ],
              [
                -62.2964467,
                -38.7746116
              ],
              [
                -62.2980459,
                -38.7757881
              ],
              [
                -62.2977981,
                -38.7759579
              ],
              [
                -62.2991797,
                -38.7770174
              ],
              [
                -62.2981736,
                -38.7774564
              ],
              [
                -62.2989094,
                -38.7780036
              ],
              [
                -62.2992951,
                -38.7781105
              ],
              [
                -62.2996517,
                -38.7775778
              ],
              [
                -62.3008812,
                -38.776252
              ],
              [
                -62.3016095,
                -38.7756755
              ],
              [
                -62.3023303,
                -38.7753769
              ],
              [
                -62.2999033,
                -38.7710748
              ]
            ]
          ]
        ]
      }
    },
    {
      "type": "Feature",
      "properties": {
        "id": 7,
        "Empresaa": "ZONA FRANCA BAHIA BLANCA-CORONEL SUAREZ",
        "Contacto": "https://zfbbcr.gob.ar/",
        "Rubro": "Logistica, almacenaje industrail, agroalimentacion, energia eolica e hidrocarburo"
      },
      "geometry": {
        "type": "MultiPolygon",
        "coordinates": [
          [
            [
              [
                -62.2971475,
                -38.7791984
              ],
              [
                -62.297781,
                -38.7820034
              ],
              [
                -62.2980597,
                -38.7821614
              ],
              [
                -62.2982624,
                -38.7818453
              ],
              [
                -62.2990733,
                -38.7815293
              ],
              [
                -62.299352,
                -38.7812922
              ],
              [
                -62.2996054,
                -38.7806404
              ],
              [
                -62.2997828,
                -38.7805416
              ],
              [
                -62.3000362,
                -38.7801663
              ],
              [
                -62.3001882,
                -38.779554
              ],
              [
                -62.3001375,
                -38.7787638
              ],
              [
                -62.2971475,
                -38.7791984
              ]
            ]
          ]
        ]
      }
    },
    {
      "type": "Feature",
      "properties": {
        "id": 8,
        "Empresaa": "LOUIS DREYFUS COMPANY",
        "Contacto": "https://www.ldc.com/ar/es/ldc-en-argentina/",
        "Rubro": "Almacenamiento, clasificacion y acondicionamiento de granos"
      },
      "geometry": {
        "type": "MultiPolygon",
        "coordinates": [
          [
            [
              [
                -62.2971475,
                -38.7791984
              ],
              [
                -62.2922602,
                -38.7799997
              ],
              [
                -62.2939236,
                -38.7858558
              ],
              [
                -62.2947382,
                -38.7853377
              ],
              [
                -62.2955563,
                -38.7850401
              ],
              [
                -62.2960744,
                -38.7848913
              ],
              [
                -62.2963334,
                -38.7848063
              ],
              [
                -62.2966879,
                -38.7847213
              ],
              [
                -62.2968106,
                -38.7848488
              ],
              [
                -62.2970015,
                -38.7848488
              ],
              [
                -62.2971788,
                -38.7841633
              ],
              [
                -62.2978878,
                -38.7825478
              ],
              [
                -62.297781,
                -38.7820034
              ],
              [
                -62.2971475,
                -38.7791984
              ]
            ]
          ]
        ]
      }
    },
    {
      "type": "Feature",
      "properties": {
        "id": 9,
        "Empresaa": "MEGA",
        "Contacto": "https://www.ciamega.com.ar/",
        "Rubro": "Fraccionamiento y almacenamiento de sustancias quimicas provenientes de petroleó"
      },
      "geometry": {
        "type": "MultiPolygon",
        "coordinates": [
          [
            [
              [
                -62.2922602,
                -38.7799997
              ],
              [
                -62.285743,
                -38.7813017
              ],
              [
                -62.2864316,
                -38.783895
              ],
              [
                -62.2858589,
                -38.7840119
              ],
              [
                -62.2869292,
                -38.7873915
              ],
              [
                -62.2939236,
                -38.7858558
              ],
              [
                -62.2922602,
                -38.7799997
              ]
            ]
          ]
        ]
      }
    },
    {
      "type": "Feature",
      "properties": {
        "id": 10,
        "Empresaa": "PROFERTIL",
        "Contacto": "https://www.profertil.com.ar/",
        "Rubro": "Fabricación o fraccionamiento de productos de la industrai de abono nitrogenados"
      },
      "geometry": {
        "type": "MultiPolygon",
        "coordinates": [
          [
            [
              [
                -62.285743,
                -38.7813017
              ],
              [
                -62.2776579,
                -38.7829039
              ],
              [
                -62.2776034,
                -38.7830314
              ],
              [
                -62.2794849,
                -38.7873251
              ],
              [
                -62.2806302,
                -38.7874101
              ],
              [
                -62.2812028,
                -38.7882178
              ],
              [
                -62.2825662,
                -38.7882178
              ],
              [
                -62.2869292,
                -38.7873915
              ],
              [
                -62.2858589,
                -38.7840119
              ],
              [
                -62.2864316,
                -38.783895
              ],
              [
                -62.285743,
                -38.7813017
              ]
            ]
          ]
        ]
      }
    },
    {
      "type": "Feature",
      "properties": {
        "id": 11,
        "Empresaa": "PBB POLISUR (DOW)",
        "Contacto": "https://ar.dow.com/es-ar.html",
        "Rubro": "Fabricación o Fraccionamiento de productos de la Industria de abono nitrogenado"
      },
      "geometry": {
        "type": "MultiPolygon",
        "coordinates": [
          [
            [
              [
                -62.2948882,
                -38.7750385
              ],
              [
                -62.2994898,
                -38.7695801
              ],
              [
                -62.2961426,
                -38.7668747
              ],
              [
                -62.2903616,
                -38.7714244
              ],
              [
                -62.2948882,
                -38.7750385
              ]
            ]
          ]
        ]
      }
    },
    {
      "type": "Feature",
      "properties": {
        "id": 12,
        "Empresaa": "UNIPAR INDUPA",
        "Contacto": "https://unipar.com/es/contactenos",
        "Rubro": "Fábrica de sustancias Químicas Industriales"
      },
      "geometry": {
        "type": "MultiPolygon",
        "coordinates": [
          [
            [
              [
                -62.2891686,
                -38.7725353
              ],
              [
                -62.2845057,
                -38.7759792
              ],
              [
                -62.2840967,
                -38.7756816
              ],
              [
                -62.2823788,
                -38.7743636
              ],
              [
                -62.2798973,
                -38.7762769
              ],
              [
                -62.2810153,
                -38.7772122
              ],
              [
                -62.2792974,
                -38.7781901
              ],
              [
                -62.2806063,
                -38.7789129
              ],
              [
                -62.2817243,
                -38.7801458
              ],
              [
                -62.2826242,
                -38.780082
              ],
              [
                -62.2827878,
                -38.7804009
              ],
              [
                -62.2855146,
                -38.7799332
              ],
              [
                -62.2855146,
                -38.7796356
              ],
              [
                -62.2880779,
                -38.7794656
              ],
              [
                -62.2891141,
                -38.7791892
              ],
              [
                -62.2894413,
                -38.7791467
              ],
              [
                -62.2899322,
                -38.7793593
              ],
              [
                -62.2902321,
                -38.7792105
              ],
              [
                -62.2935043,
                -38.776128
              ],
              [
                -62.2891686,
                -38.7725353
              ]
            ]
          ]
        ]
      }
    },
    {
      "type": "Feature",
      "properties": {
        "id": 13,
        "Empresaa": "PATAGONIA NORTE S.A",
        "Contacto": "https://www.patagonia-norte.com.ar/",
        "Rubro": "servicio portuario y la logística de cargas multipropósito"
      },
      "geometry": {
        "type": "MultiPolygon",
        "coordinates": [
          [
            [
              [
                -62.2786771,
                -38.7897668
              ],
              [
                -62.277997,
                -38.7884184
              ],
              [
                -62.2794968,
                -38.7880199
              ],
              [
                -62.2793059,
                -38.787616
              ],
              [
                -62.2782339,
                -38.7870727
              ],
              [
                -62.2774875,
                -38.7861773
              ],
              [
                -62.2772898,
                -38.7862039
              ],
              [
                -62.2760934,
                -38.786528
              ],
              [
                -62.2772114,
                -38.7888156
              ],
              [
                -62.2753367,
                -38.7898039
              ],
              [
                -62.2753298,
                -38.789889
              ],
              [
                -62.2750981,
                -38.7900749
              ],
              [
                -62.2755412,
                -38.7903938
              ],
              [
                -62.2760252,
                -38.7902928
              ],
              [
                -62.2761479,
                -38.7903566
              ],
              [
                -62.2786771,
                -38.7897668
              ]
            ]
          ]
        ]
      }
    },
    {
      "type": "Feature",
      "properties": {
        "id": 14,
        "Empresaa": "CARGILL S.A",
        "Contacto": "https://www.cargill.com/worldwide/argentina-es",
        "Rubro": "Elevadores"
      },
      "geometry": {
        "type": "MultiPolygon",
        "coordinates": [
          [
            [
              [
                -62.2757951,
                -38.7864762
              ],
              [
                -62.2753588,
                -38.7855729
              ],
              [
                -62.2724274,
                -38.7863168
              ],
              [
                -62.2718548,
                -38.7864018
              ],
              [
                -62.2694552,
                -38.7874327
              ],
              [
                -62.2684224,
                -38.7879309
              ],
              [
                -62.2685519,
                -38.7880318
              ],
              [
                -62.2696699,
                -38.788255
              ],
              [
                -62.2697313,
                -38.7882922
              ],
              [
                -62.2757951,
                -38.7864762
              ]
            ]
          ]
        ]
      }
    },
    {
      "type": "Feature",
      "properties": {
        "id": 14,
        "Empresaa": "CARGILL S.A",
        "Contacto": "https://www.cargill.com/worldwide/argentina-es",
        "Rubro": "Elevadores"
      },
      "geometry": {
        "type": "MultiPolygon",
        "coordinates": [
          [
            [
              [
                -62.2661045,
                -38.7883746
              ],
              [
                -62.2660091,
                -38.7884171
              ],
              [
                -62.2661591,
                -38.7887253
              ],
              [
                -62.2667726,
                -38.7894798
              ],
              [
                -62.2674952,
                -38.7898624
              ],
              [
                -62.2681497,
                -38.7900112
              ],
              [
                -62.2685723,
                -38.7900537
              ],
              [
                -62.2695131,
                -38.7899049
              ],
              [
                -62.2708902,
                -38.7894373
              ],
              [
                -62.271122,
                -38.7893098
              ],
              [
                -62.2711083,
                -38.7891291
              ],
              [
                -62.2709311,
                -38.7890441
              ],
              [
                -62.2696222,
                -38.7888209
              ],
              [
                -62.269554,
                -38.7885446
              ],
              [
                -62.2678497,
                -38.7880557
              ],
              [
                -62.2668272,
                -38.7881089
              ],
              [
                -62.2661045,
                -38.7883746
              ]
            ]
          ]
        ]
      }
    },
    {
      "type": "Feature",
      "properties": {
        "id": 15,
        "Empresaa": "PAMPA ENERGIA",
        "Contacto": "https://pampa.com/contacto/",
        "Rubro": "Generacion de energia eléctrica"
      },
      "geometry": {
        "type": "MultiPolygon",
        "coordinates": [
          [
            [
              [
                -62.2518116,
                -38.7906967
              ],
              [
                -62.257749,
                -38.7863902
              ],
              [
                -62.254045,
                -38.7833636
              ],
              [
                -62.2478823,
                -38.7879548
              ],
              [
                -62.2492458,
                -38.78906
              ],
              [
                -62.2496821,
                -38.7889325
              ],
              [
                -62.2504728,
                -38.7885499
              ],
              [
                -62.2506637,
                -38.7887306
              ],
              [
                -62.2506637,
                -38.7892194
              ],
              [
                -62.250282,
                -38.7894851
              ],
              [
                -62.2518116,
                -38.7906967
              ]
            ]
          ]
        ]
      }
    },
    {
      "type": "Feature",
      "properties": {
        "id": 16,
        "Empresaa": "CONSORCIO DE GESTIÓN DEL PUERTO DE BAHÍA BLANCA",
        "Contacto": "https://puertobahiablanca.com/",
        "Rubro": "Administracion y explotacion de infraestructura logistica y transporte maritimo"
      },
      "geometry": {
        "type": "MultiPolygon",
        "coordinates": [
          [
            [
              [
                -62.2493139,
                -38.7866263
              ],
              [
                -62.2438057,
                -38.7820191
              ],
              [
                -62.2374112,
                -38.7869452
              ],
              [
                -62.2372476,
                -38.7872215
              ],
              [
                -62.2373294,
                -38.7873065
              ],
              [
                -62.2374521,
                -38.7872746
              ],
              [
                -62.2376839,
                -38.7873065
              ],
              [
                -62.2380384,
                -38.787434
              ],
              [
                -62.2383656,
                -38.7875616
              ],
              [
                -62.238461,
                -38.7876891
              ],
              [
                -62.2385429,
                -38.7879867
              ],
              [
                -62.2394427,
                -38.789602
              ],
              [
                -62.2426604,
                -38.7894532
              ],
              [
                -62.2444056,
                -38.7890707
              ],
              [
                -62.2458781,
                -38.7884543
              ],
              [
                -62.2480323,
                -38.7876466
              ],
              [
                -62.2493139,
                -38.7866263
              ]
            ]
          ]
        ]
      }
    },
    {
      "type": "Feature",
      "properties": {
        "id": 17,
        "Empresaa": "Central Termoelectrica Guillermo Brown",
        "Contacto": "https://ageera.com.ar/portfolio_page/ct-guillermo-brown-sa/",
        "Rubro": "Generación de Energía Eléctrica con turbina dúal (gas-gasoil)"
      },
      "geometry": {
        "type": "MultiPolygon",
        "coordinates": [
          [
            [
              [
                -62.4262947,
                -38.690801
              ],
              [
                -62.4280627,
                -38.6894689
              ],
              [
                -62.4208973,
                -38.6835159
              ],
              [
                -62.4188232,
                -38.6851012
              ],
              [
                -62.4154962,
                -38.6824815
              ],
              [
                -62.4120827,
                -38.6850787
              ],
              [
                -62.4122555,
                -38.6851461
              ],
              [
                -62.4108729,
                -38.6861467
              ],
              [
                -62.41043,
                -38.6858095
              ],
              [
                -62.4095082,
                -38.6865065
              ],
              [
                -62.4262947,
                -38.690801
              ]
            ]
          ]
        ]
      }
    },
    {
      "type": "Feature",
      "properties": {
        "id": 18,
        "Empresaa": "TGS Cerri",
        "Contacto": "https://www.tgs.com.ar/",
        "Rubro": "Procesamiento y transporte de ga"
      },
      "geometry": {
        "type": "MultiPolygon",
        "coordinates": [
          [
            [
              [
                -62.4035346,
                -38.6909921
              ],
              [
                -62.408374,
                -38.6870799
              ],
              [
                -62.399617,
                -38.6801092
              ],
              [
                -62.3986952,
                -38.6800192
              ],
              [
                -62.3959299,
                -38.6780403
              ],
              [
                -62.3902263,
                -38.6807388
              ],
              [
                -62.3889589,
                -38.6840219
              ],
              [
                -62.3910905,
                -38.6846964
              ],
              [
                -62.388786,
                -38.6863154
              ],
              [
                -62.3886708,
                -38.6880692
              ],
              [
                -62.4035346,
                -38.6909921
              ]
            ]
          ]
        ]
      }
    },
    {
      "type": "Feature",
      "properties": {
        "id": 19,
        "Empresaa": "ADM Agro S.R.L",
        "Contacto": "https://www.adm.com/en-us/about-adm/locations/south-america/",
        "Rubro": "Servicio de elevación de granos"
      },
      "geometry": {
        "type": "MultiPolygon",
        "coordinates": [
          [
            [
              [
                -62.257749,
                -38.7863902
              ],
              [
                -62.2518116,
                -38.7906967
              ],
              [
                -62.2536633,
                -38.7921632
              ],
              [
                -62.2566764,
                -38.7899527
              ],
              [
                -62.2574536,
                -38.7896552
              ],
              [
                -62.2591715,
                -38.7881673
              ],
              [
                -62.2575354,
                -38.7869345
              ],
              [
                -62.257999,
                -38.7865945
              ],
              [
                -62.257749,
                -38.7863902
              ]
            ]
          ]
        ]
      }
    }
  ]
}