{
"type": "FeatureCollection",
"name": "empresas_act",
"crs": { "type": "name", "properties": { "name": "urn:ogc:def:crs:EPSG::3857" } },
"features": [
{ "type": "Feature", "properties": { "id": 1, "Empresaa": "Pan American Energy SL Sucursal Argentina", "Contacto": "https://www.axionenergy.com/contacto/", "Rubro": "Planta de Almacenamiento y despacho de combustibles" }, "geometry": { "type": "MultiPolygon", "coordinates": [ [ [ [ -6935484.36812518723309, -4689468.145663724280894 ], [ -6935537.860020798631012, -4689563.428102781996131 ], [ -6935599.710025099106133, -4689566.771346257068217 ], [ -6935666.574894612655044, -4689206.536861750297248 ], [ -6935678.276246777735651, -4688996.748333650641143 ], [ -6935656.545164185576141, -4688701.707096920348704 ], [ -6935646.515433758497238, -4688242.011119010858238 ], [ -6935636.485703331418335, -4688193.534088613465428 ], [ -6935506.0992077793926, -4688205.235440778546035 ], [ -6935429.204607838764787, -4688507.798975329846144 ], [ -6935405.801903508603573, -4688578.007088319398463 ], [ -6935307.17622097581625, -4688725.945612116716802 ], [ -6935220.251890607178211, -4688862.182783753611147 ], [ -6935208.550538442097604, -4688875.555757656693459 ], [ -6935484.36812518723309, -4689468.145663724280894 ] ] ] ] } },
{ "type": "Feature", "properties": { "id": 2, "Empresaa": "YPF", "Contacto": "https://www.ypf.com/", "Rubro": "Produccion de energía, hidrocarburos y el petróleo" }, "geometry": { "type": "MultiPolygon", "coordinates": [ [ [ [ -6935133.327560236677527, -4689961.274076394736767 ], [ -6935203.744625944644213, -4689947.483197056688368 ], [ -6935309.056795430369675, -4689913.2149514304474 ], [ -6935382.608151895925403, -4689855.126096040010452 ], [ -6935491.263564856722951, -4689575.547360382974148 ], [ -6935470.368293133564293, -4689564.681819086894393 ], [ -6935463.681806181557477, -4689547.129790839739144 ], [ -6935383.443962764926255, -4689589.756145155057311 ], [ -6935302.370308478362858, -4689672.083515744656324 ], [ -6935165.506278690882027, -4689861.394677557051182 ], [ -6935125.805262416601181, -4689937.453466629609466 ], [ -6935133.327560236677527, -4689961.274076394736767 ] ] ] ] } },
{ "type": "Feature", "properties": { "id": 3, "Empresaa": "PUMA ENERGY", "Contacto": "https://www.pumaenergyarg.com.ar/home", "Rubro": "Produccion de energía, hidrocarburos y el petróleo" }, "geometry": { "type": "MultiPolygon", "coordinates": [ [ [ [ -6935027.388532601296902, -4689968.378468780778348 ], [ -6934816.764193630777299, -4689759.425751549191773 ], [ -6934586.080393807031214, -4689971.721712256781757 ], [ -6934699.155187985859811, -4690071.649284575134516 ], [ -6934886.972306621260941, -4690028.556851344183087 ], [ -6934980.583123940974474, -4690005.154147014021873 ], [ -6935027.388532601296902, -4689968.378468780778348 ] ] ] ] } },
{ "type": "Feature", "properties": { "id": 4, "Empresaa": "VITERRA", "Contacto": "https://www.viterra.com/", "Rubro": "Elaboración de Aceites crudos de soja y girasol y almacenaje" }, "geometry": { "type": "MultiPolygon", "coordinates": [ [ [ [ -6934586.080393807031214, -4689971.721712256781757 ], [ -6934816.764193630777299, -4689759.425751549191773 ], [ -6934671.333102436736226, -4689613.9946603551507 ], [ -6934519.633429726585746, -4689840.499405834823847 ], [ -6934539.692890580743551, -4689927.423736203461885 ], [ -6934586.080393807031214, -4689971.721712256781757 ] ] ] ] } },
{ "type": "Feature", "properties": { "id": 5, "Empresaa": "SHELL", "Contacto": "https://www.shell.com.ar/", "Rubro": "Produccion de energía, hidrocarburos y el petróleo" }, "geometry": { "type": "MultiPolygon", "coordinates": [ [ [ [ -6934808.719514021649957, -4689437.847519733011723 ], [ -6934680.004640206694603, -4689605.009693518280983 ], [ -6935037.73169210832566, -4689963.99046172387898 ], [ -6935082.865479030646384, -4689922.199918277561665 ], [ -6935000.956013875082135, -4689844.051602032035589 ], [ -6935112.954670311883092, -4689781.365786862559617 ], [ -6934959.16547042876482, -4689630.084019586443901 ], [ -6934986.747229103930295, -4689605.845504387281835 ], [ -6934808.719514021649957, -4689437.847519733011723 ] ] ] ] } },
{ "type": "Feature", "properties": { "id": 7, "Empresaa": "ZONA FRANCA BAHIA BLANCA-CORONEL SUAREZ", "Contacto": "https://zfbbcr.gob.ar/", "Rubro": "Logistica, almacenaje industrail, agroalimentacion, energia eolica e hidrocarburo" }, "geometry": { "type": "MultiPolygon", "coordinates": [ [ [ [ -6934886.736310202628374, -4690092.805050236172974 ], [ -6934957.255529079586267, -4690493.354213456623256 ], [ -6934988.283985385671258, -4690515.920363496989012 ], [ -6935010.850135426037014, -4690470.788063415326178 ], [ -6935101.114735588431358, -4690425.655763334594667 ], [ -6935132.143191894516349, -4690391.806538273580372 ], [ -6935160.350879444740713, -4690298.721169356256723 ], [ -6935180.096260730177164, -4690284.61732558067888 ], [ -6935208.30394828133285, -4690231.022719234228134 ], [ -6935225.228560811839998, -4690143.578887827694416 ], [ -6935219.58702330198139, -4690030.748137624002993 ], [ -6934886.736310202628374, -4690092.805050236172974 ] ] ] ] } },
{ "type": "Feature", "properties": { "id": 8, "Empresaa": "LOUIS DREYFUS COMPANY", "Contacto": "https://www.ldc.com/ar/es/ldc-en-argentina/", "Rubro": "Almacenamiento, clasificacion y acondicionamiento de granos" }, "geometry": { "type": "MultiPolygon", "coordinates": [ [ [ [ -6934886.736310202628374, -4690092.805050236172974 ], [ -6934342.685379942879081, -4690207.224020493216813 ], [ -6934527.852216502651572, -4691043.510306920856237 ], [ -6934618.538433587178588, -4690969.519460342824459 ], [ -6934709.604090911336243, -4690927.022153591737151 ], [ -6934767.279007215984166, -4690905.773500216193497 ], [ -6934796.11646536923945, -4690893.631412573158741 ], [ -6934835.578250208869576, -4690881.489324929192662 ], [ -6934849.238098807632923, -4690899.702456394210458 ], [ -6934870.486752183176577, -4690899.702456394210458 ], [ -6934890.217644602991641, -4690801.806874771602452 ], [ -6934969.14121428411454, -4690571.107209551148117 ], [ -6934957.255529079586267, -4690493.354213456623256 ], [ -6934886.736310202628374, -4690092.805050236172974 ] ] ] ] } },
{ "type": "Feature", "properties": { "id": 9, "Empresaa": "MEGA", "Contacto": "https://www.ciamega.com.ar/", "Rubro": "Fraccionamiento y almacenamiento de sustancias quimicas provenientes de petroleó" }, "geometry": { "type": "MultiPolygon", "coordinates": [ [ [ [ -6934342.685379942879081, -4690207.224020493216813 ], [ -6933617.19564326107502, -4690393.149737530387938 ], [ -6933693.842571509070694, -4690763.483410649001598 ], [ -6933630.096611382439733, -4690780.178781158290803 ], [ -6933749.240846381522715, -4691262.826764976605773 ], [ -6934527.852216502651572, -4691043.510306920856237 ], [ -6934342.685379942879081, -4690207.224020493216813 ] ] ] ] } },
{ "type": "Feature", "properties": { "id": 10, "Empresaa": "PROFERTIL", "Contacto": "https://www.profertil.com.ar/", "Rubro": "Fabricación o fraccionamiento de productos de la industrai de abono nitrogenados" }, "geometry": { "type": "MultiPolygon", "coordinates": [ [ [ [ -6933617.19564326107502, -4690393.149737530387938 ], [ -6932717.163396706804633, -4690621.952201558277011 ], [ -6932711.092352884821594, -4690640.165333023294806 ], [ -6932920.543364730663598, -4691253.340759006328881 ], [ -6933048.035284984856844, -4691265.48284665029496 ], [ -6933111.781245111487806, -4691380.832679260522127 ], [ -6933263.557340651750565, -4691380.832679260522127 ], [ -6933749.240846381522715, -4691262.826764976605773 ], [ -6933630.096611382439733, -4690780.178781158290803 ], [ -6933693.842571509070694, -4690763.483410649001598 ], [ -6933617.19564326107502, -4690393.149737530387938 ] ] ] ] } },
{ "type": "Feature", "properties": { "id": 11, "Empresaa": "PBB POLISUR (DOW)", "Contacto": "https://ar.dow.com/es-ar.html", "Rubro": "Fabricación o Fraccionamiento de productos de la Industria de abono nitrogenado" }, "geometry": { "type": "MultiPolygon", "coordinates": [ [ [ [ -6934635.233804102987051, -4689498.809094557538629 ], [ -6935147.478126551955938, -4688719.43884395994246 ], [ -6934774.867812000215054, -4688333.168680807575583 ], [ -6934131.337166908197105, -4688982.770369720645249 ], [ -6934635.233804102987051, -4689498.809094557538629 ] ] ] ] } },
{ "type": "Feature", "properties": { "id": 12, "Empresaa": "UNIPAR INDUPA", "Contacto": "https://unipar.com/es/contactenos", "Rubro": "Fábrica de sustancias Químicas Industriales" }, "geometry": { "type": "MultiPolygon", "coordinates": [ [ [ [ -6933998.533083311282098, -4689141.376389563083649 ], [ -6933479.458836562931538, -4689633.130939113907516 ], [ -6933433.926007900387049, -4689590.633632362820208 ], [ -6933242.68812751956284, -4689402.431273892521858 ], [ -6932966.455633636564016, -4689675.628245864994824 ], [ -6933090.912031979300082, -4689809.19120994117111 ], [ -6932899.674151598475873, -4689948.82521783746779 ], [ -6933045.379203317686915, -4690052.032962805591524 ], [ -6933169.835601660422981, -4690228.093233631923795 ], [ -6933270.007824717089534, -4690218.986667899414897 ], [ -6933288.220956182107329, -4690264.519496561959386 ], [ -6933591.773147262632847, -4690197.738014523871243 ], [ -6933591.773147262632847, -4690155.240707772783935 ], [ -6933877.112206879071891, -4690130.956532486714423 ], [ -6933992.462039489299059, -4690091.494747646152973 ], [ -6934028.88830241933465, -4690085.423703824169934 ], [ -6934083.527696813456714, -4690115.778922932222486 ], [ -6934116.918437832966447, -4690094.530269556678832 ], [ -6934481.181067129597068, -4689654.37959248945117 ], [ -6933998.533083311282098, -4689141.376389563083649 ] ] ] ] } },
{ "type": "Feature", "properties": { "id": 13, "Empresaa": "PATAGONIA NORTE S.A", "Contacto": "https://www.patagonia-norte.com.ar/", "Rubro": "servicio portuario y la logística de cargas multipropósito" }, "geometry": { "type": "MultiPolygon", "coordinates": [ [ [ [ -6932830.616028123535216, -4691602.046338513493538 ], [ -6932754.917700472287834, -4691409.480417299084365 ], [ -6932921.87140556704253, -4691352.564381470903754 ], [ -6932900.622752191498876, -4691294.889465165324509 ], [ -6932781.288797073066235, -4691217.29393631964922 ], [ -6932698.191384764388204, -4691089.422575827687979 ], [ -6932676.183850911445916, -4691093.216978215612471 ], [ -6932543.000327073968947, -4691139.508687355555594 ], [ -6932667.456725417636335, -4691466.20673300512135 ], [ -6932458.764594050124288, -4691607.358501857146621 ], [ -6932458.005713571794331, -4691619.500589500181377 ], [ -6932432.203777329996228, -4691646.061406220309436 ], [ -6932481.531008380465209, -4691691.594234881922603 ], [ -6932535.41152229718864, -4691677.175505805760622 ], [ -6932549.071370895951986, -4691686.28207153826952 ], [ -6932830.616028123535216, -4691602.046338513493538 ] ] ] ] } },
{ "type": "Feature", "properties": { "id": 14, "Empresaa": "CARGILL S.A", "Contacto": "https://www.cargill.com/worldwide/argentina-es", "Rubro": "Elevadores" }, "geometry": { "type": "MultiPolygon", "coordinates": [ [ [ [ -6932509.799306173808873, -4691132.109602699056268 ], [ -6932461.230955601669848, -4691003.099921490065753 ], [ -6932134.912350189872086, -4691109.343188367784023 ], [ -6932071.166390063241124, -4691121.485276011750102 ], [ -6931804.040461911819875, -4691268.708088685758412 ], [ -6931689.070069541223347, -4691339.853133470751345 ], [ -6931703.488798617385328, -4691354.271862547844648 ], [ -6931827.945196961052716, -4691386.144842610694468 ], [ -6931834.775121259503067, -4691391.457005954347551 ], [ -6932509.799306173808873, -4691132.109602699056268 ] ] ] ] } },
{ "type": "Feature", "properties": { "id": 14, "Empresaa": "CARGILL S.A", "Contacto": "https://www.cargill.com/worldwide/argentina-es", "Rubro": "Elevadores" }, "geometry": { "type": "MultiPolygon", "coordinates": [ [ [ [ -6931431.050707124173641, -4691403.219653359614313 ], [ -6931420.426380435936153, -4691409.290697181597352 ], [ -6931437.121750945225358, -4691453.30576488841325 ], [ -6931505.420993939042091, -4691561.066792721860111 ], [ -6931585.862324574962258, -4691615.706187115982175 ], [ -6931658.714850435033441, -4691636.954840492457151 ], [ -6931705.765440052375197, -4691643.025884313508868 ], [ -6931810.490945975296199, -4691621.777230937965214 ], [ -6931963.784802470356226, -4691554.995748899877071 ], [ -6931989.586738713085651, -4691536.782617435790598 ], [ -6931988.068977757357061, -4691510.980681193061173 ], [ -6931968.338085336610675, -4691498.838593550026417 ], [ -6931822.633033618330956, -4691466.965613487176597 ], [ -6931815.044228841550648, -4691427.503828646615148 ], [ -6931625.324109415523708, -4691357.686824698001146 ], [ -6931511.492037760093808, -4691365.275629474781454 ], [ -6931431.050707124173641, -4691403.219653359614313 ] ] ] ] } },
{ "type": "Feature", "properties": { "id": 16, "Empresaa": "CONSORCIO DE GESTIÓN DEL PUERTO DE BAHÍA BLANCA", "Contacto": "https://puertobahiablanca.com/", "Rubro": "Administracion y explotacion de infraestructura logistica y transporte maritimo" }, "geometry": { "type": "MultiPolygon", "coordinates": [ [ [ [ -6929561.928090553730726, -4691153.547976192086935 ], [ -6928948.752664568834007, -4690495.598602023907006 ], [ -6928236.92277648486197, -4691199.080804853700101 ], [ -6928218.709645019844174, -4691238.542589694261551 ], [ -6928227.816210752353072, -4691250.684677337296307 ], [ -6928241.476059351116419, -4691246.131394471041858 ], [ -6928267.277995592914522, -4691250.684677337296307 ], [ -6928306.739780433475971, -4691268.897808802314103 ], [ -6928343.16604336258024, -4691287.110940266400576 ], [ -6928353.790370052680373, -4691305.324071732349694 ], [ -6928362.896935785189271, -4691347.821378483437002 ], [ -6928463.069158841855824, -4691578.521043704822659 ], [ -6928821.260744316503406, -4691557.272390329279006 ], [ -6929015.534146608784795, -4691502.632995935156941 ], [ -6929179.45232979208231, -4691414.602860521525145 ], [ -6929419.258560745976865, -4691299.253027910366654 ], [ -6929561.928090553730726, -4691153.547976192086935 ] ] ] ] } },
{ "type": "Feature", "properties": { "id": 17, "Empresaa": "Central Termoelectrica Guillermo Brown", "Contacto": "https://ageera.com.ar/portfolio_page/ct-guillermo-brown-sa/", "Rubro": "Generación de Energía Eléctrica con turbina dúal (gas-gasoil)" }, "geometry": { "type": "MultiPolygon", "coordinates": [ [ [ [ -6949263.341429611667991, -4677477.752456285990775 ], [ -6949460.149098666384816, -4677287.758902045898139 ], [ -6948662.496835084632039, -4676438.800362213514745 ], [ -6948431.618591956794262, -4676664.868641941808164 ], [ -6948061.251410273835063, -4676291.294817993417382 ], [ -6947681.264301793649793, -4676661.661999676376581 ], [ -6947700.504155387170613, -4676671.281926473602653 ], [ -6947546.585326636210084, -4676813.97750729508698 ], [ -6947497.283201801590621, -4676765.877873309887946 ], [ -6947394.670649300329387, -4676865.283783545717597 ], [ -6949263.341429611667991, -4677477.752456285990775 ] ] ] ] } },
{ "type": "Feature", "properties": { "id": 18, "Empresaa": "TGS Cerri", "Contacto": "https://www.tgs.com.ar/", "Rubro": "Procesamiento y transporte de ga" }, "geometry": { "type": "MultiPolygon", "coordinates": [ [ [ [ -6946729.693209460936487, -4677505.008915544487536 ], [ -6947268.409110091626644, -4676947.053161320276558 ], [ -6946293.589861331507564, -4675952.994058966636658 ], [ -6946190.977308831177652, -4675940.167489903979003 ], [ -6945883.139651328325272, -4675657.982970526441932 ], [ -6945248.224482728168368, -4676042.780042405240238 ], [ -6945107.132223039865494, -4676510.949813190847635 ], [ -6945344.423750697635114, -4676607.149081160314381 ], [ -6945087.892369445413351, -4676838.027324288152158 ], [ -6945075.065800382755697, -4677088.145421008579433 ], [ -6946729.693209460936487, -4677505.008915544487536 ] ] ] ] } },
{ "type": "Feature", "properties": { "id": 19, "Empresaa": "ADM Agro S.R.L", "Contacto": "https://www.adm.com/en-us/about-adm/locations/south-america/", "Rubro": "Servicio de elevación de granos" }, "geometry": { "type": "MultiPolygon", "coordinates": [ [ [ [ -6930500.916808093897998, -4691119.826405885629356 ], [ -6929839.971779188141227, -4691734.854828532785177 ], [ -6930046.093835324980319, -4691944.301433961838484 ], [ -6930381.519006471149623, -4691628.607155235484242 ], [ -6930468.031380925327539, -4691586.109848484396935 ], [ -6930659.269261306151748, -4691373.623314728029072 ], [ -6930477.137946657836437, -4691197.563043901696801 ], [ -6930528.741819141432643, -4691148.994693328626454 ], [ -6930500.916808093897998, -4691119.826405885629356 ] ] ] ] } }
]
}
