{
"type": "FeatureCollection",
"name": "escuelas_ult",
"crs": { "type": "name", "properties": { "name": "urn:ogc:def:crs:OGC:1.3:CRS84" } },
"features": [
{ "type": "Feature", "properties": { "id": 19, "nom": "Casa del Niño", "dir": "Magallenes 3897", "res": null, "num": "2914273897", "adm": "Araceli Uthurralt", "mat": 57, "cue": 62178500, "con": null, "cap": 50 }, "geometry": { "type": "MultiPolygon", "coordinates": [ [ [ [ -62.272538320169197, -38.781554650538887 ], [ -62.272731164325386, -38.781413433952068 ], [ -62.27257324470142, -38.781273735823177 ], [ -62.272384955919001, -38.781421026241681 ], [ -62.272538320169197, -38.781554650538887 ] ] ] ] } },
{ "type": "Feature", "properties": { "id": 17, "nom": "Jardín 953", "dir": "Isabel la Católica 3310", "res": null, "num": "2915021959", "adm": "Monica Campione", "mat": 92, "cue": 61339200, "con": null, "cap": 113 }, "geometry": { "type": "MultiPolygon", "coordinates": [ [ [ [ -62.27383795241186, -38.768744206434022 ], [ -62.273623071380648, -38.768576306560171 ], [ -62.273583021869456, -38.768611734973923 ], [ -62.27353450034628, -38.768570145096909 ], [ -62.273441308214466, -38.768644082656039 ], [ -62.273488289371826, -38.768683361984323 ], [ -62.273341184436482, -38.768800429786268 ], [ -62.27346287333588, -38.768902093930066 ], [ -62.273662350708939, -38.768752678445999 ], [ -62.273732822444963, -38.768824305456413 ], [ -62.27383795241186, -38.768744206434022 ] ] ] ] } },
{ "type": "Feature", "properties": { "id": 15, "nom": "Escuela N58", "dir": "Brihuega 2466", "res": null, "num": "2914166807", "adm": "Andrea Ferronato", "mat": 142, "cue": 61189100, "con": null, "cap": 160 }, "geometry": { "type": "MultiPolygon", "coordinates": [ [ [ [ -62.275093350551167, -38.76891749758822 ], [ -62.27523124314331, -38.768805391495029 ], [ -62.275230443108711, -38.768761920640898 ], [ -62.274813196518537, -38.768445182920154 ], [ -62.274606017316401, -38.768606151147836 ], [ -62.274601973856143, -38.768610194608108 ], [ -62.274685923793065, -38.768671809240708 ], [ -62.274922369945685, -38.768865125150505 ], [ -62.274982444212476, -38.768818143993144 ], [ -62.275093350551167, -38.76891749758822 ] ] ] ] } },
{ "type": "Feature", "properties": { "id": 18, "nom": "CFP 401", "dir": "Santiago Dasso", "res": null, "num": "2915043585", "adm": "Maria Emilia Méndez", "mat": 484, "cue": 61501600, "con": null, "cap": 160 }, "geometry": { "type": "MultiPolygon", "coordinates": [ [ [ [ -62.270966036622418, -38.773785149836861 ], [ -62.270896720160735, -38.773730466850431 ], [ -62.270705137162487, -38.773885273614837 ], [ -62.270660081462395, -38.77385350356991 ], [ -62.270600392287058, -38.773898174178548 ], [ -62.270546672029241, -38.773847630925239 ], [ -62.270491603951349, -38.773894226991146 ], [ -62.270408039105888, -38.773827221078186 ], [ -62.270455020263242, -38.773790444844344 ], [ -62.270332946272397, -38.773691476340723 ], [ -62.270253232341467, -38.773756556796414 ], [ -62.270241872143615, -38.773884888523369 ], [ -62.270243990146611, -38.773887391617826 ], [ -62.270289623483869, -38.773933795138007 ], [ -62.270426138404225, -38.774045086568151 ], [ -62.270470038829956, -38.774012738886036 ], [ -62.27056323096177, -38.774099769554589 ], [ -62.270966036622418, -38.773785149836861 ] ] ] ] } },
{ "type": "Feature", "properties": { "id": 11, "nom": "Escuela N59", "dir": "Gral. Nicolás Levalle 1435", "res": null, "num": "2914702704", "adm": "Maria Adela Schiebelbeien", "mat": 241, "cue": 60543500, "con": null, "cap": 163 }, "geometry": { "type": "MultiPolygon", "coordinates": [ [ [ [ -62.274280581917004, -38.750195304621627 ], [ -62.274094314983131, -38.750060154738726 ], [ -62.274143624641738, -38.75001942067292 ], [ -62.274078235746629, -38.749962607370612 ], [ -62.273755448552137, -38.750207958437649 ], [ -62.274003199309618, -38.750404250399875 ], [ -62.274280581917004, -38.750195304621627 ] ] ] ] } },
{ "type": "Feature", "properties": { "id": 12, "nom": "EET N1", "dir": "Cabral y Tarija 3501", "res": null, "num": "2914631345", "adm": "Juan Troncoso", "mat": 1201, "cue": 61123900, "con": null, "cap": 680 }, "geometry": { "type": "MultiPolygon", "coordinates": [ [ [ [ -62.269889725488731, -38.77540075934931 ], [ -62.269905620370245, -38.774901393232227 ], [ -62.269852009908583, -38.774901393232227 ], [ -62.269569502465181, -38.77510187379022 ], [ -62.269146094411738, -38.77542881643447 ], [ -62.269153218603634, -38.775435748080639 ], [ -62.269126165929009, -38.775462030572356 ], [ -62.269173917269278, -38.775500539717733 ], [ -62.269156574999954, -38.775514911355479 ], [ -62.269180463823993, -38.775533657582756 ], [ -62.269137704117448, -38.775569808468219 ], [ -62.269527816315296, -38.775888326811689 ], [ -62.269627463290412, -38.77581134006477 ], [ -62.269659226688496, -38.775821992079884 ], [ -62.269649312668918, -38.775949748898562 ], [ -62.269801616074666, -38.77607589122632 ], [ -62.269874976260844, -38.776067971974882 ], [ -62.269884578884408, -38.775603020130951 ], [ -62.269620894643872, -38.775602081752879 ], [ -62.269620894643872, -38.775393761819061 ], [ -62.269889725488731, -38.77540075934931 ] ] ] ] } },
{ "type": "Feature", "properties": { "id": 14, "nom": "Escuela N13", "dir": "Brihuega y Avenente 3480", "res": null, "num": "2914257334", "adm": "Silvina Zapata", "mat": 295, "cue": 61125100, "con": null, "cap": 184 }, "geometry": { "type": "MultiPolygon", "coordinates": [ [ [ [ -62.263145021742055, -38.778027991201732 ], [ -62.263248226251662, -38.777975618764017 ], [ -62.263326688635281, -38.777899178110424 ], [ -62.263357592224537, -38.777875494986034 ], [ -62.263332946371499, -38.777849308767181 ], [ -62.263453094905074, -38.777744563891751 ], [ -62.263386859175021, -38.777686029990775 ], [ -62.263138860278794, -38.777881656449296 ], [ -62.262850811871367, -38.777645980479583 ], [ -62.262756849556645, -38.777729160233598 ], [ -62.263145021742055, -38.778027991201732 ] ] ] ] } },
{ "type": "Feature", "properties": { "id": 9, "nom": "Jardín 932", "dir": "Juan B. Justo y Daniel De Soli", "res": null, "num": "2914126486", "adm": "Graciela Pettinari", "mat": 88, "cue": 60484500, "con": null, "cap": 110 }, "geometry": { "type": "MultiPolygon", "coordinates": [ [ [ [ -62.256646410913795, -38.780383210533024 ], [ -62.256772720910647, -38.78031312388844 ], [ -62.25665950402324, -38.780160627672743 ], [ -62.256590187561557, -38.780152925843666 ], [ -62.25636452396963, -38.780319285351702 ], [ -62.256453095003998, -38.780385521081747 ], [ -62.256573243537581, -38.780291558767026 ], [ -62.256646410913795, -38.780383210533024 ] ] ] ] } },
{ "type": "Feature", "properties": { "id": 13, "nom": "Escuela N21", "dir": "Brihuega Esq. Canning 3900", "res": null, "num": "2914130459", "adm": "Karina Botta", "mat": 130, "cue": 61125300, "con": null, "cap": 155 }, "geometry": { "type": "MultiPolygon", "coordinates": [ [ [ [ -62.257703679500182, -38.782321953457107 ], [ -62.257540400723776, -38.782179469619209 ], [ -62.257421792556016, -38.782267270470669 ], [ -62.257492649383508, -38.782325804371645 ], [ -62.257169557653775, -38.782580349822588 ], [ -62.257089843722845, -38.782528362476327 ], [ -62.257205178613269, -38.782435747981694 ], [ -62.257119688310532, -38.782359499873834 ], [ -62.256949477887964, -38.782497362614293 ], [ -62.257050371848834, -38.7826005671239 ], [ -62.256985676484604, -38.782641386818 ], [ -62.257118147944702, -38.782746131693429 ], [ -62.257195936418363, -38.78268528724373 ], [ -62.257239836844093, -38.782725336754922 ], [ -62.257524990054343, -38.782510890368755 ], [ -62.257552531104551, -38.782486580053572 ], [ -62.257522493971159, -38.782464244749256 ], [ -62.257592580615743, -38.782410331945727 ], [ -62.257606443908081, -38.782426505786781 ], [ -62.257658816345796, -38.782383375543958 ], [ -62.257646493419273, -38.782368742068719 ], [ -62.257703679500182, -38.782321953457107 ] ] ] ] } },
{ "type": "Feature", "properties": { "id": 5, "nom": "Escuela N703", "dir": "Siches 4048", "res": null, "num": "2914293298", "adm": "Mirta Lacaruso", "mat": 58, "cue": 60248601, "con": null, "cap": null }, "geometry": { "type": "MultiPolygon", "coordinates": [ [ [ [ -62.267782604781416, -38.785869228783291 ], [ -62.267700262104874, -38.785734102339738 ], [ -62.267653812389909, -38.785759438547906 ], [ -62.267607362674937, -38.785683429923409 ], [ -62.267174535785422, -38.785877674186018 ], [ -62.267294882774216, -38.786065584396582 ], [ -62.267782604781416, -38.785869228783291 ] ] ] ] } },
{ "type": "Feature", "properties": { "id": 21, "nom": "Jardín Sarmiento", "dir": "Sisco 3550", "res": null, "num": "2914704300", "adm": "Nicolas Sampini", "mat": 94, "cue": 62413700, "con": null, "cap": null }, "geometry": { "type": "MultiPolygon", "coordinates": [ [ [ [ -62.265801278113699, -38.781308711313372 ], [ -62.2658825651149, -38.781252056736776 ], [ -62.265903502675819, -38.78123727728201 ], [ -62.265772950825401, -38.781127662992517 ], [ -62.265671957884521, -38.781200328645099 ], [ -62.265801278113699, -38.781308711313372 ] ] ] ] } },
{ "type": "Feature", "properties": { "id": 16, "nom": "Jardín 922", "dir": "Rio Negro 2251", "res": null, "num": "2914189392", "adm": "Sandra Vega", "mat": 118, "cue": 61198700, "con": null, "cap": null }, "geometry": { "type": "MultiPolygon", "coordinates": [ [ [ [ -62.275195475420418, -38.749787184949753 ], [ -62.275090544270121, -38.749701332190433 ], [ -62.27483394653607, -38.74989155302255 ], [ -62.27494821814863, -38.749978001981617 ], [ -62.275195475420418, -38.749787184949753 ] ] ] ] } },
{ "type": "Feature", "properties": { "id": 10, "nom": "Jardín 926", "dir": "Felix Frías 870", "res": null, "num": "2916497977", "adm": "Valeria Murgoitía", "mat": 57, "cue": 60484900, "con": null, "cap": 48 }, "geometry": { "type": "MultiPolygon", "coordinates": [ [ [ [ -62.285842911182428, -38.748258341729816 ], [ -62.285981293111597, -38.748154555282937 ], [ -62.285868009865659, -38.748058230606759 ], [ -62.285726914565331, -38.748169478824323 ], [ -62.285842911182428, -38.748258341729816 ] ] ] ] } },
{ "type": "Feature", "properties": { "id": 7, "nom": "Jardín 905", "dir": "Magallanes 3850", "res": null, "num": "2914255608", "adm": "Marisa Polatti", "mat": 95, "cue": 60477700, "con": null, "cap": 109 }, "geometry": { "type": "MultiPolygon", "coordinates": [ [ [ [ -62.271986625247841, -38.78111777248111 ], [ -62.272137581097724, -38.780999164313343 ], [ -62.272077506830932, -38.780955263887613 ], [ -62.272120637073755, -38.780916754742236 ], [ -62.271951581925549, -38.780778892001777 ], [ -62.27189574366475, -38.7808220222446 ], [ -62.271877127158398, -38.780804839606944 ], [ -62.271748638729406, -38.780910593278975 ], [ -62.271986625247841, -38.78111777248111 ] ] ] ] } },
{ "type": "Feature", "properties": { "id": 1, "nom": "Colegio Sarmiento Primaria", "dir": "Jose Sisco 3547", "res": null, "num": "2914709668", "adm": "Claudia Trufero", "mat": 351, "cue": 61188900, "con": null, "cap": 375 }, "geometry": { "type": "MultiPolygon", "coordinates": [ [ [ [ -62.265900450061054, -38.781236747715568 ], [ -62.265985823617356, -38.781173973041817 ], [ -62.2659180269697, -38.781121242315862 ], [ -62.26591049400885, -38.781133797250611 ], [ -62.265825120452547, -38.781055956655152 ], [ -62.265757323804891, -38.781111198368059 ], [ -62.265900450061054, -38.781236747715568 ] ] ] ] } },
{ "type": "Feature", "properties": { "id": 6, "nom": "Escuela N15", "dir": "Siches 4048", "res": null, "num": "2914646326", "adm": "Gabriela Goñi", "mat": 126, "cue": 60477200, "con": null, "cap": 85 }, "geometry": { "type": "MultiPolygon", "coordinates": [ [ [ [ -62.267783690273717, -38.785870774132206 ], [ -62.267698316717407, -38.785732669849949 ], [ -62.267653118952303, -38.785756524225974 ], [ -62.267605410200254, -38.785677428137042 ], [ -62.267172264951341, -38.785877051599584 ], [ -62.267292792324952, -38.786064120127371 ], [ -62.267783690273717, -38.785870774132206 ] ] ] ] } },
{ "type": "Feature", "properties": { "id": 3, "nom": "Jardín 7625", "dir": "Magallanes 3897", "res": null, "num": "2916430737", "adm": "Monzon Sabrina", "mat": 57, "cue": 62178500, "con": null, "cap": 68 }, "geometry": { "type": "MultiPolygon", "coordinates": [ [ [ [ -62.272732688615882, -38.781415027789052 ], [ -62.272570259147543, -38.781268135052471 ], [ -62.27238664322681, -38.781422089939852 ], [ -62.272536360823715, -38.781559095665322 ], [ -62.272732688615882, -38.781415027789052 ] ] ] ] } },
{ "type": "Feature", "properties": { "id": 8, "nom": "Escuela N70", "dir": "Ingeniero Luiggi 2699", "res": null, "num": "2915050086", "adm": "Gabriela Gerhardt", "mat": 135, "cue": 60484300, "con": null, "cap": null }, "geometry": { "type": "MultiPolygon", "coordinates": [ [ [ [ -62.285762250559131, -38.748539786703176 ], [ -62.285916918996179, -38.748411812311097 ], [ -62.28583997733714, -38.748347432555569 ], [ -62.285799936269676, -38.748378052195392 ], [ -62.28574576306076, -38.748326234343388 ], [ -62.285612292835893, -38.748418878381827 ], [ -62.285762250559131, -38.748539786703176 ] ] ] ] } },
{ "type": "Feature", "properties": { "id": 20, "nom": "Escuela Secundaria N25", "dir": "Ingeniero Luiggi 2701", "res": null, "num": "2916430737", "adm": "Karina D' Andrea", "mat": 123, "cue": 62293500, "con": null, "cap": 112 }, "geometry": { "type": "MultiPolygon", "coordinates": [ [ [ [ -62.285887498148163, -38.74863012265893 ], [ -62.286036650772992, -38.748508088693157 ], [ -62.285920643175899, -38.748414679978616 ], [ -62.285771351692638, -38.748533663977724 ], [ -62.285887498148163, -38.74863012265893 ] ] ] ] } },
{ "type": "Feature", "properties": { "id": 4, "nom": "Colegio Mosconi", "dir": "Avda. Santiago Dasso y Lautaro", "res": null, "num": "2915747428", "adm": "Raul Contreras", "mat": 507, "cue": 61123500, "con": null, "cap": 530 }, "geometry": { "type": "MultiPolygon", "coordinates": [ [ [ [ -62.270624845594341, -38.775729765405586 ], [ -62.270776683151261, -38.775611624628269 ], [ -62.270763093426247, -38.775599989585658 ], [ -62.270776571627131, -38.77558651138478 ], [ -62.270809689492154, -38.775615778335265 ], [ -62.270888633240176, -38.775554548794112 ], [ -62.270898260526522, -38.775560710257373 ], [ -62.270934844214629, -38.77553259858125 ], [ -62.270894409611984, -38.775498325441866 ], [ -62.270938801187334, -38.775461515335628 ], [ -62.270877080496561, -38.775409754407498 ], [ -62.270892484154714, -38.775398971846798 ], [ -62.270793130559639, -38.775315021909869 ], [ -62.270779267267301, -38.775330425568022 ], [ -62.270575938979704, -38.775162525694171 ], [ -62.270401107459691, -38.775309630629515 ], [ -62.270256698164538, -38.775419381693844 ], [ -62.270624845594341, -38.775729765405586 ] ] ] ] } },
{ "type": "Feature", "properties": { "id": 22, "nom": "Club Nautico", "dir": null, "res": null, "num": null, "adm": "Rodolfo Amaya", "mat": null, "cue": null, "con": null, "cap": null }, "geometry": { "type": "MultiPolygon", "coordinates": [ [ [ [ -62.278962595594855, -38.789332159176034 ], [ -62.2790363926499, -38.789311659994077 ], [ -62.278957129146335, -38.78909846850172 ], [ -62.278876499030638, -38.789120334295809 ], [ -62.278962595594855, -38.789332159176034 ] ] ] ] } },
{ "type": "Feature", "properties": { "id": 23, "nom": "Club de pesca Galván", "dir": null, "res": null, "num": null, "adm": "Rosario Bernal", "mat": null, "cue": null, "con": null, "cap": 500 }, "geometry": { "type": "MultiPolygon", "coordinates": [ [ [ [ -62.299275740320617, -38.779766368947669 ], [ -62.29893135406374, -38.77971717091097 ], [ -62.298865756681479, -38.780072490064896 ], [ -62.299210142938357, -38.780138087447156 ], [ -62.299275740320617, -38.779766368947669 ] ] ] ] } },
{ "type": "Feature", "properties": { "id": 24, "nom": "CENS 456", "dir": "Av. Santiago Dasso y Lautaro", "res": null, "num": "2914196529", "adm": "Daniel Kohler", "mat": 145, "cue": 62382300, "con": null, "cap": null }, "geometry": { "type": "MultiPolygon", "coordinates": [ [ [ [ -62.270403225462637, -38.775306549897898 ], [ -62.270574013522371, -38.775165221334369 ], [ -62.27047177174137, -38.775078383211522 ], [ -62.270207213912691, -38.77527978604185 ], [ -62.270228008851198, -38.775295959882911 ], [ -62.270216263561856, -38.775305587169257 ], [ -62.270256120527293, -38.775341593220197 ], [ -62.27023378522297, -38.775359692518521 ], [ -62.270254965252931, -38.775377791816851 ], [ -62.270375113786507, -38.775283059319221 ], [ -62.270402070188275, -38.775305394623537 ], [ -62.270403225462637, -38.775306549897898 ] ] ] ] } },
{ "type": "Feature", "properties": { "id": 25, "nom": "Escuela 38 anexo 2", "dir": "Emilio Rosas y Reconquista", "res": null, "num": "2914613584", "adm": "Beatriz Acosta", "mat": 62, "cue": 61737602, "con": null, "cap": 40 }, "geometry": { "type": "MultiPolygon", "coordinates": [ [ [ [ -62.242175891607218, -38.768363447268506 ], [ -62.242263582552255, -38.768217675307923 ], [ -62.242082506444973, -38.768152761231725 ], [ -62.241989121282721, -38.768301949722634 ], [ -62.242175891607218, -38.768363447268506 ] ] ] ] } },
{ "type": "Feature", "properties": { "id": 26, "nom": "Escuela 40", "dir": "Nueva Provincia", "res": null, "num": "2915715043", "adm": "Daniela Dalmas", "mat": 80, "cue": 60484400, "con": null, "cap": 107 }, "geometry": { "type": "MultiPolygon", "coordinates": [ [ [ [ -62.242351691235754, -38.768426617967506 ], [ -62.242415606200851, -38.768331348491238 ], [ -62.24227451090055, -38.76827165432573 ], [ -62.242209389992723, -38.768371144601581 ], [ -62.242351691235754, -38.768426617967506 ] ] ] ] } },
{ "type": "Feature", "properties": { "id": 27, "nom": "Jardin 943", "dir": "Nueva Provincia", "res": null, "num": "2914424582", "adm": "Juliana González", "mat": 53, "cue": 60483900, "con": null, "cap": 48 }, "geometry": { "type": "MultiPolygon", "coordinates": [ [ [ [ -62.242448075189863, -38.768185787691543 ], [ -62.242539182665233, -38.768029766139989 ], [ -62.242400243765303, -38.767972823967881 ], [ -62.242243083370298, -38.768159594292378 ], [ -62.242430992538232, -38.768223369525131 ], [ -62.242448075189863, -38.768185787691543 ] ] ] ] } },
{ "type": "Feature", "properties": { "id": 2, "nom": "Colegio Sarmiento Secundario", "dir": "Jose Sisco 3547", "res": null, "num": "2916481047", "adm": "Facundo Retondo", "mat": 288, "cue": 61912400, "con": null, "cap": null }, "geometry": { "type": "MultiPolygon", "coordinates": [ [ [ [ -62.265900353251915, -38.781236693260439 ], [ -62.265987263653251, -38.781173416389294 ], [ -62.265916744248663, -38.781120812725327 ], [ -62.265911026459101, -38.781132629490422 ], [ -62.265824497243749, -38.781057345261189 ], [ -62.265757408512897, -38.781109948925156 ], [ -62.265900353251915, -38.781236693260439 ] ] ] ] } }
]
}
