{
  "type": "FeatureCollection",
  "name": "Escuelas - Digitalización",
  "crs": {
    "type": "name",
    "properties": {
      "name": "urn:ogc:def:crs:OGC:1.3:CRS84"
    }
  },
  "features": [
    {
      "type": "Feature",
      "properties": {
        "id": 19,
        "nom": "Casa del Niño",
        "dir": "Magallenes 3897",
        "res": null,
        "num": "2914273897",
        "adm": "Araceli Uthurralt",
        "mat": 57,
        "cue": 62178500,
        "con": null,
        "cap": null
      },
      "geometry": {
        "type": "Polygon",
        "coordinates": [
          [
            [
              -62.2725383,
              -38.7815547
            ],
            [
              -62.2727312,
              -38.7814134
            ],
            [
              -62.2725732,
              -38.7812737
            ],
            [
              -62.272385,
              -38.781421
            ],
            [
              -62.2725383,
              -38.7815547
            ]
          ]
        ]
      }
    },
    {
      "type": "Feature",
      "properties": {
        "id": 16,
        "nom": "Jardín 953",
        "dir": "Isabel la Católica 3310",
        "res": null,
        "num": "2915021959",
        "adm": "Mónica Campione",
        "mat": 92,
        "cue": 61339200,
        "con": null,
        "cap": null
      },
      "geometry": {
        "type": "Polygon",
        "coordinates": [
          [
            [
              -62.273838,
              -38.7687442
            ],
            [
              -62.2736231,
              -38.7685763
            ],
            [
              -62.273583,
              -38.7686117
            ],
            [
              -62.2735345,
              -38.7685701
            ],
            [
              -62.2734413,
              -38.7686441
            ],
            [
              -62.2734883,
              -38.7686834
            ],
            [
              -62.2733412,
              -38.7688004
            ],
            [
              -62.2734629,
              -38.7689021
            ],
            [
              -62.2736624,
              -38.7687527
            ],
            [
              -62.2737328,
              -38.7688243
            ],
            [
              -62.273838,
              -38.7687442
            ]
          ]
        ]
      }
    },
    {
      "type": "Feature",
      "properties": {
        "id": 14,
        "nom": "Escuela N58",
        "dir": "Brihuega 2466",
        "res": null,
        "num": "2914166807",
        "adm": "Andrea Ferronato",
        "mat": 142,
        "cue": 61189100,
        "con": null,
        "cap": null
      },
      "geometry": {
        "type": "Polygon",
        "coordinates": [
          [
            [
              -62.2750934,
              -38.7689175
            ],
            [
              -62.2752312,
              -38.7688054
            ],
            [
              -62.2752304,
              -38.7687619
            ],
            [
              -62.2748132,
              -38.7684452
            ],
            [
              -62.274606,
              -38.7686062
            ],
            [
              -62.274602,
              -38.7686102
            ],
            [
              -62.2746859,
              -38.7686718
            ],
            [
              -62.2749224,
              -38.7688651
            ],
            [
              -62.2749824,
              -38.7688181
            ],
            [
              -62.2750934,
              -38.7689175
            ]
          ]
        ]
      }
    },
    {
      "type": "Feature",
      "properties": {
        "id": 17,
        "nom": "CFP 401",
        "dir": "Santiago Dasso",
        "res": null,
        "num": "2915043585",
        "adm": "Maria Emilia Méndez",
        "mat": 484,
        "cue": 61501600,
        "con": null,
        "cap": null
      },
      "geometry": {
        "type": "Polygon",
        "coordinates": [
          [
            [
              -62.270966,
              -38.7737851
            ],
            [
              -62.2708967,
              -38.7737305
            ],
            [
              -62.2707051,
              -38.7738853
            ],
            [
              -62.2706601,
              -38.7738535
            ],
            [
              -62.2706004,
              -38.7738982
            ],
            [
              -62.2705467,
              -38.7738476
            ],
            [
              -62.2704916,
              -38.7738942
            ],
            [
              -62.270408,
              -38.7738272
            ],
            [
              -62.270455,
              -38.7737904
            ],
            [
              -62.2703329,
              -38.7736915
            ],
            [
              -62.2702532,
              -38.7737566
            ],
            [
              -62.2702419,
              -38.7738849
            ],
            [
              -62.270244,
              -38.7738874
            ],
            [
              -62.2702896,
              -38.7739338
            ],
            [
              -62.2704261,
              -38.7740451
            ],
            [
              -62.27047,
              -38.7740127
            ],
            [
              -62.2705632,
              -38.7740998
            ],
            [
              -62.270966,
              -38.7737851
            ]
          ]
        ]
      }
    },
    {
      "type": "Feature",
      "properties": {
        "id": 10,
        "nom": "Escuela N59",
        "dir": "Gral. Nicolás Levalle 1435",
        "res": null,
        "num": "2914702704",
        "adm": "Maria Adela Schiebelbeien",
        "mat": 241,
        "cue": 60543500,
        "con": null,
        "cap": null
      },
      "geometry": {
        "type": "Polygon",
        "coordinates": [
          [
            [
              -62.2742806,
              -38.7501953
            ],
            [
              -62.2740943,
              -38.7500602
            ],
            [
              -62.2741436,
              -38.7500194
            ],
            [
              -62.2740782,
              -38.7499626
            ],
            [
              -62.2737554,
              -38.750208
            ],
            [
              -62.2740032,
              -38.7504043
            ],
            [
              -62.2742806,
              -38.7501953
            ]
          ]
        ]
      }
    },
    {
      "type": "Feature",
      "properties": {
        "id": 11,
        "nom": "EET N1",
        "dir": "Cabral y Tarija 3501",
        "res": null,
        "num": "2914631345",
        "adm": "Juan Troncoso",
        "mat": 1201,
        "cue": 61123900,
        "con": null,
        "cap": null
      },
      "geometry": {
        "type": "Polygon",
        "coordinates": [
          [
            [
              -62.2698897,
              -38.7754008
            ],
            [
              -62.2699056,
              -38.7749014
            ],
            [
              -62.269852,
              -38.7749014
            ],
            [
              -62.2695695,
              -38.7751019
            ],
            [
              -62.2691461,
              -38.7754288
            ],
            [
              -62.2691532,
              -38.7754357
            ],
            [
              -62.2691262,
              -38.775462
            ],
            [
              -62.2691739,
              -38.7755005
            ],
            [
              -62.2691566,
              -38.7755149
            ],
            [
              -62.2691805,
              -38.7755337
            ],
            [
              -62.2691377,
              -38.7755698
            ],
            [
              -62.2695278,
              -38.7758883
            ],
            [
              -62.2696275,
              -38.7758113
            ],
            [
              -62.2696592,
              -38.775822
            ],
            [
              -62.2696493,
              -38.7759497
            ],
            [
              -62.2698016,
              -38.7760759
            ],
            [
              -62.269875,
              -38.776068
            ],
            [
              -62.2698846,
              -38.775603
            ],
            [
              -62.2696209,
              -38.7756021
            ],
            [
              -62.2696209,
              -38.7753938
            ],
            [
              -62.2698897,
              -38.7754008
            ]
          ]
        ]
      }
    },
    {
      "type": "Feature",
      "properties": {
        "id": 12,
        "nom": "Escuela N13",
        "dir": "Brihuega y Avenente 3480",
        "res": null,
        "num": "2914257334",
        "adm": "Silvina Zapata",
        "mat": 295,
        "cue": 61125100,
        "con": null,
        "cap": null
      },
      "geometry": {
        "type": "Polygon",
        "coordinates": [
          [
            [
              -62.263145,
              -38.778028
            ],
            [
              -62.2632482,
              -38.7779756
            ],
            [
              -62.2633267,
              -38.7778992
            ],
            [
              -62.2633576,
              -38.7778755
            ],
            [
              -62.2633329,
              -38.7778493
            ],
            [
              -62.2634531,
              -38.7777446
            ],
            [
              -62.2633869,
              -38.777686
            ],
            [
              -62.2631389,
              -38.7778817
            ],
            [
              -62.2628508,
              -38.777646
            ],
            [
              -62.2627568,
              -38.7777292
            ],
            [
              -62.263145,
              -38.778028
            ]
          ]
        ]
      }
    },
    {
      "type": "Feature",
      "properties": {
        "id": 8,
        "nom": "Jardín 932",
        "dir": "Juan B. Justo y Daniel De Soli",
        "res": null,
        "num": "2914126486",
        "adm": "Graciela Pettinari",
        "mat": 88,
        "cue": 60484500,
        "con": null,
        "cap": null
      },
      "geometry": {
        "type": "Polygon",
        "coordinates": [
          [
            [
              -62.2566464,
              -38.7803832
            ],
            [
              -62.2567727,
              -38.7803131
            ],
            [
              -62.2566595,
              -38.7801606
            ],
            [
              -62.2565902,
              -38.7801529
            ],
            [
              -62.2563645,
              -38.7803193
            ],
            [
              -62.2564531,
              -38.7803855
            ],
            [
              -62.2565732,
              -38.7802916
            ],
            [
              -62.2566464,
              -38.7803832
            ]
          ]
        ]
      }
    },
    {
      "type": "Feature",
      "properties": {
        "id": 13,
        "nom": "Escuela N21",
        "dir": "Brihuega Esq. Canning 3900",
        "res": null,
        "num": "2914130459",
        "adm": "Karina Botta",
        "mat": 130,
        "cue": 61125300,
        "con": null,
        "cap": null
      },
      "geometry": {
        "type": "Polygon",
        "coordinates": [
          [
            [
              -62.2577037,
              -38.782322
            ],
            [
              -62.2575404,
              -38.7821795
            ],
            [
              -62.2574218,
              -38.7822673
            ],
            [
              -62.2574926,
              -38.7823258
            ],
            [
              -62.2571696,
              -38.7825803
            ],
            [
              -62.2570898,
              -38.7825284
            ],
            [
              -62.2572052,
              -38.7824357
            ],
            [
              -62.2571197,
              -38.7823595
            ],
            [
              -62.2569495,
              -38.7824974
            ],
            [
              -62.2570504,
              -38.7826006
            ],
            [
              -62.2569857,
              -38.7826414
            ],
            [
              -62.2571181,
              -38.7827461
            ],
            [
              -62.2571959,
              -38.7826853
            ],
            [
              -62.2572398,
              -38.7827253
            ],
            [
              -62.257525,
              -38.7825109
            ],
            [
              -62.2575525,
              -38.7824866
            ],
            [
              -62.2575225,
              -38.7824642
            ],
            [
              -62.2575926,
              -38.7824103
            ],
            [
              -62.2576064,
              -38.7824265
            ],
            [
              -62.2576588,
              -38.7823834
            ],
            [
              -62.2576465,
              -38.7823687
            ],
            [
              -62.2577037,
              -38.782322
            ]
          ]
        ]
      }
    },
    {
      "type": "Feature",
      "properties": {
        "id": 4,
        "nom": "Escuela N703",
        "dir": "Siches 4048",
        "res": null,
        "num": "2914293298",
        "adm": "Mirta Lacaruso",
        "mat": 58,
        "cue": 60248601,
        "con": null,
        "cap": null
      },
      "geometry": {
        "type": "Polygon",
        "coordinates": [
          [
            [
              -62.2677826,
              -38.7858692
            ],
            [
              -62.2677003,
              -38.7857341
            ],
            [
              -62.2676538,
              -38.7857594
            ],
            [
              -62.2676074,
              -38.7856834
            ],
            [
              -62.2671745,
              -38.7858777
            ],
            [
              -62.2672949,
              -38.7860656
            ],
            [
              -62.2677826,
              -38.7858692
            ]
          ]
        ]
      }
    },
    {
      "type": "Feature",
      "properties": {
        "id": 21,
        "nom": "Jardín Sarmiento",
        "dir": "Sisco 3550",
        "res": null,
        "num": "2914704300",
        "adm": "Nicolás Sampini",
        "mat": 94,
        "cue": 62413700,
        "con": null,
        "cap": null
      },
      "geometry": {
        "type": "Polygon",
        "coordinates": [
          [
            [
              -62.2658013,
              -38.7813087
            ],
            [
              -62.2658826,
              -38.7812521
            ],
            [
              -62.2659035,
              -38.7812373
            ],
            [
              -62.265773,
              -38.7811277
            ],
            [
              -62.265672,
              -38.7812003
            ],
            [
              -62.2658013,
              -38.7813087
            ]
          ]
        ]
      }
    },
    {
      "type": "Feature",
      "properties": {
        "id": 18,
        "nom": "Colegio Secundario Sarmiento",
        "dir": "José Sisco 3547",
        "res": null,
        "num": "2916481047",
        "adm": "Facundo Retondo",
        "mat": 288,
        "cue": 61912400,
        "con": null,
        "cap": null
      },
      "geometry": {
        "type": "Polygon",
        "coordinates": [
          [
            [
              -62.2653905,
              -38.7820318
            ],
            [
              -62.2655137,
              -38.7819307
            ],
            [
              -62.2654367,
              -38.7818652
            ],
            [
              -62.265354,
              -38.7818693
            ],
            [
              -62.2652703,
              -38.7819294
            ],
            [
              -62.2653905,
              -38.7820318
            ]
          ]
        ]
      }
    },
    {
      "type": "Feature",
      "properties": {
        "id": 15,
        "nom": "Jardín 922",
        "dir": "Rio Negro 2251",
        "res": null,
        "num": "2914189392",
        "adm": "Sandra Vega",
        "mat": 118,
        "cue": 61198700,
        "con": null,
        "cap": null
      },
      "geometry": {
        "type": "Polygon",
        "coordinates": [
          [
            [
              -62.2751955,
              -38.7497872
            ],
            [
              -62.2750905,
              -38.7497013
            ],
            [
              -62.2748339,
              -38.7498916
            ],
            [
              -62.2749482,
              -38.749978
            ],
            [
              -62.2751955,
              -38.7497872
            ]
          ]
        ]
      }
    },
    {
      "type": "Feature",
      "properties": {
        "id": 9,
        "nom": "Jardín 926",
        "dir": "Félix Frías 870",
        "res": null,
        "num": "2916497977",
        "adm": "Valeria Murgoitía",
        "mat": 57,
        "cue": 60484900,
        "con": null,
        "cap": null
      },
      "geometry": {
        "type": "Polygon",
        "coordinates": [
          [
            [
              -62.2858429,
              -38.7482583
            ],
            [
              -62.2859813,
              -38.7481546
            ],
            [
              -62.285868,
              -38.7480582
            ],
            [
              -62.2857269,
              -38.7481695
            ],
            [
              -62.2858429,
              -38.7482583
            ]
          ]
        ]
      }
    },
    {
      "type": "Feature",
      "properties": {
        "id": 6,
        "nom": "Jardín 905",
        "dir": "Magallanes 3850",
        "res": null,
        "num": "2914255608",
        "adm": "Marisa Polatti",
        "mat": 95,
        "cue": 60477700,
        "con": null,
        "cap": null
      },
      "geometry": {
        "type": "Polygon",
        "coordinates": [
          [
            [
              -62.2719866,
              -38.7811178
            ],
            [
              -62.2721376,
              -38.7809992
            ],
            [
              -62.2720775,
              -38.7809553
            ],
            [
              -62.2721206,
              -38.7809168
            ],
            [
              -62.2719516,
              -38.7807789
            ],
            [
              -62.2718957,
              -38.780822
            ],
            [
              -62.2718771,
              -38.7808048
            ],
            [
              -62.2717486,
              -38.7809106
            ],
            [
              -62.2719866,
              -38.7811178
            ]
          ]
        ]
      }
    },
    {
      "type": "Feature",
      "properties": {
        "id": 1,
        "nom": "Colegio Sarmiento Primaria",
        "dir": "José Sisco 3547",
        "res": null,
        "num": "2914709668",
        "adm": "Claudia Trufero",
        "mat": 351,
        "cue": 61188900,
        "con": null,
        "cap": null
      },
      "geometry": {
        "type": "Polygon",
        "coordinates": [
          [
            [
              -62.2659005,
              -38.7812367
            ],
            [
              -62.2659858,
              -38.781174
            ],
            [
              -62.265918,
              -38.7811212
            ],
            [
              -62.2659105,
              -38.7811338
            ],
            [
              -62.2658251,
              -38.781056
            ],
            [
              -62.2657573,
              -38.7811112
            ],
            [
              -62.2659005,
              -38.7812367
            ]
          ]
        ]
      }
    },
    {
      "type": "Feature",
      "properties": {
        "id": 5,
        "nom": "Escuela N15",
        "dir": "Siches 4048",
        "res": null,
        "num": "2914646326",
        "adm": "Gabriela Goñi",
        "mat": 126,
        "cue": 60477200,
        "con": null,
        "cap": null
      },
      "geometry": {
        "type": "Polygon",
        "coordinates": [
          [
            [
              -62.2677837,
              -38.7858708
            ],
            [
              -62.2676983,
              -38.7857327
            ],
            [
              -62.2676531,
              -38.7857565
            ],
            [
              -62.2676054,
              -38.7856774
            ],
            [
              -62.2671723,
              -38.7858771
            ],
            [
              -62.2672928,
              -38.7860641
            ],
            [
              -62.2677837,
              -38.7858708
            ]
          ]
        ]
      }
    },
    {
      "type": "Feature",
      "properties": {
        "id": 2,
        "nom": "Jardín 7625",
        "dir": "Magallanes 3897",
        "res": null,
        "num": "2916430737",
        "adm": null,
        "mat": 57,
        "cue": 62178500,
        "con": null,
        "cap": null
      },
      "geometry": {
        "type": "Polygon",
        "coordinates": [
          [
            [
              -62.2727327,
              -38.781415
            ],
            [
              -62.2725703,
              -38.7812681
            ],
            [
              -62.2723866,
              -38.7814221
            ],
            [
              -62.2725364,
              -38.7815591
            ],
            [
              -62.2727327,
              -38.781415
            ]
          ]
        ]
      }
    },
    {
      "type": "Feature",
      "properties": {
        "id": 7,
        "nom": "Escuela N70",
        "dir": "Ingeniero Luiggi 2699",
        "res": null,
        "num": "2915050086",
        "adm": "Gabriela Gerhardt",
        "mat": 135,
        "cue": 60484300,
        "con": null,
        "cap": null
      },
      "geometry": {
        "type": "Polygon",
        "coordinates": [
          [
            [
              -62.2857623,
              -38.7485398
            ],
            [
              -62.2859169,
              -38.7484118
            ],
            [
              -62.28584,
              -38.7483474
            ],
            [
              -62.2857999,
              -38.7483781
            ],
            [
              -62.2857458,
              -38.7483262
            ],
            [
              -62.2856123,
              -38.7484189
            ],
            [
              -62.2857623,
              -38.7485398
            ]
          ]
        ]
      }
    },
    {
      "type": "Feature",
      "properties": {
        "id": 20,
        "nom": "Escuela Secundaria N25",
        "dir": "Ingeniero Luiggi 2701",
        "res": null,
        "num": "2916430737",
        "adm": "Karina D' Andrea",
        "mat": 123,
        "cue": 62293500,
        "con": null,
        "cap": null
      },
      "geometry": {
        "type": "Polygon",
        "coordinates": [
          [
            [
              -62.2858875,
              -38.7486301
            ],
            [
              -62.2860367,
              -38.7485081
            ],
            [
              -62.2859206,
              -38.7484147
            ],
            [
              -62.2857714,
              -38.7485337
            ],
            [
              -62.2858875,
              -38.7486301
            ]
          ]
        ]
      }
    },
    {
      "type": "Feature",
      "properties": {
        "id": 3,
        "nom": "Colegio Mosconi",
        "dir": "Avda. Santiago Dasso y Lautaro",
        "res": null,
        "num": "2915747428",
        "adm": "Raúl Contreras",
        "mat": 507,
        "cue": 61123500,
        "con": null,
        "cap": null
      },
      "geometry": {
        "type": "Polygon",
        "coordinates": [
          [
            [
              -62.2706248,
              -38.7757298
            ],
            [
              -62.2707767,
              -38.7756116
            ],
            [
              -62.2707631,
              -38.7756
            ],
            [
              -62.2707766,
              -38.7755865
            ],
            [
              -62.2708097,
              -38.7756158
            ],
            [
              -62.2708886,
              -38.7755545
            ],
            [
              -62.2708983,
              -38.7755607
            ],
            [
              -62.2709348,
              -38.7755326
            ],
            [
              -62.2708944,
              -38.7754983
            ],
            [
              -62.2709388,
              -38.7754615
            ],
            [
              -62.2708771,
              -38.7754098
            ],
            [
              -62.2708925,
              -38.775399
            ],
            [
              -62.2707931,
              -38.775315
            ],
            [
              -62.2707793,
              -38.7753304
            ],
            [
              -62.2705759,
              -38.7751625
            ],
            [
              -62.2704011,
              -38.7753096
            ],
            [
              -62.2702567,
              -38.7754194
            ],
            [
              -62.2706248,
              -38.7757298
            ]
          ]
        ]
      }
    },
    {
      "type": "Feature",
      "properties": {
        "id": 22,
        "nom": "Club Nautico",
        "dir": null,
        "res": null,
        "num": null,
        "adm": "Rodolfo Amaya",
        "mat": null,
        "cue": null,
        "con": null,
        "cap": null
      },
      "geometry": {
        "type": "Polygon",
        "coordinates": [
          [
            [
              -62.2789626,
              -38.7893322
            ],
            [
              -62.2790364,
              -38.7893117
            ],
            [
              -62.2789571,
              -38.7890985
            ],
            [
              -62.2788765,
              -38.7891203
            ],
            [
              -62.2789626,
              -38.7893322
            ]
          ]
        ]
      }
    },
    {
      "type": "Feature",
      "properties": {
        "id": 23,
        "nom": "Club de pesca Galván",
        "dir": null,
        "res": null,
        "num": null,
        "adm": "Rosario Bernal",
        "mat": null,
        "cue": null,
        "con": null,
        "cap": null
      },
      "geometry": {
        "type": "Polygon",
        "coordinates": [
          [
            [
              -62.2992757,
              -38.7797664
            ],
            [
              -62.2989314,
              -38.7797172
            ],
            [
              -62.2988658,
              -38.7800725
            ],
            [
              -62.2992101,
              -38.7801381
            ],
            [
              -62.2992757,
              -38.7797664
            ]
          ]
        ]
      }
    },
    {
      "type": "Feature",
      "properties": {
        "id": 24,
        "nom": "CENS 456",
        "dir": "Av. Santiago Dasso y Lautaro",
        "res": null,
        "num": "2914196529",
        "adm": "Daniel Kohler",
        "mat": 145,
        "cue": 62382300,
        "con": null,
        "cap": null
      },
      "geometry": {
        "type": "Polygon",
        "coordinates": [
          [
            [
              -62.2704032,
              -38.7753065
            ],
            [
              -62.270574,
              -38.7751652
            ],
            [
              -62.2704718,
              -38.7750784
            ],
            [
              -62.2702072,
              -38.7752798
            ],
            [
              -62.270228,
              -38.775296
            ],
            [
              -62.2702163,
              -38.7753056
            ],
            [
              -62.2702561,
              -38.7753416
            ],
            [
              -62.2702338,
              -38.7753597
            ],
            [
              -62.270255,
              -38.7753778
            ],
            [
              -62.2703751,
              -38.7752831
            ],
            [
              -62.2704021,
              -38.7753054
            ],
            [
              -62.2704032,
              -38.7753065
            ]
          ]
        ]
      }
    },
    {
      "type": "Feature",
      "properties": {
        "id": 25,
        "nom": "Escuela 38 anexo 2",
        "dir": "Emilio Rosas y Reconquista",
        "res": null,
        "num": "2914613584",
        "adm": "Beatriz Acosta",
        "mat": 62,
        "cue": 61737602,
        "con": null,
        "cap": null
      },
      "geometry": {
        "type": "Polygon",
        "coordinates": [
          [
            [
              -62.2421759,
              -38.7683634
            ],
            [
              -62.2422636,
              -38.7682177
            ],
            [
              -62.2420825,
              -38.7681528
            ],
            [
              -62.2419891,
              -38.7683019
            ],
            [
              -62.2421759,
              -38.7683634
            ]
          ]
        ]
      }
    },
    {
      "type": "Feature",
      "properties": {
        "id": 26,
        "nom": "Escuela 40",
        "dir": "Nueva Provincia",
        "res": null,
        "num": "2915715043",
        "adm": "Daniela Dalmas",
        "mat": 80,
        "cue": 60484400,
        "con": null,
        "cap": null
      },
      "geometry": {
        "type": "Polygon",
        "coordinates": [
          [
            [
              -62.2423517,
              -38.7684266
            ],
            [
              -62.2424156,
              -38.7683313
            ],
            [
              -62.2422745,
              -38.7682717
            ],
            [
              -62.2422094,
              -38.7683711
            ],
            [
              -62.2423517,
              -38.7684266
            ]
          ]
        ]
      }
    },
    {
      "type": "Feature",
      "properties": {
        "id": 27,
        "nom": "Jardin 943",
        "dir": "Nueva Provincia",
        "res": null,
        "num": "2914424582",
        "adm": "Juliana González",
        "mat": 53,
        "cue": 60483900,
        "con": null,
        "cap": null
      },
      "geometry": {
        "type": "Polygon",
        "coordinates": [
          [
            [
              -62.2424481,
              -38.7681858
            ],
            [
              -62.2425392,
              -38.7680298
            ],
            [
              -62.2424002,
              -38.7679728
            ],
            [
              -62.2422431,
              -38.7681596
            ],
            [
              -62.242431,
              -38.7682234
            ],
            [
              -62.2424481,
              -38.7681858
            ]
          ]
        ]
      }
    }
  ]
}